GroupID;corresp_entry;volume;nombre;type;featuretype;conf_identity;idno_base;gazetteermatch;Province;region;conf_loc_verbal;Lat;Lon;auto;review-note-es;review-note-en;review-note-fr;category-note-es;category-note-en;category-note-fr;doublette-note-es;doublette-note-en;doublette-note-fr;imaginary-note-es;imaginary-note-en;imaginary-note-fr;artifact-note-es;artifact-note-en;artifact-note-fr;historical-note-es;historical-note-en;historical-note-fr;reviewer;alcedo-page;facsimile
TopUrbiGroup10010;id_00014;1;Abanes;Indigenous-political;Nación;-;;;San Juan de los Llanos;Nuevo Reyno de Granada;dummy_regional;7;-73,5;10;Este grupo no ha sido revisado.;This group has not been looked at.;Ce groupe n'a pas été examiné.;;;;;;;;;;;;;;;;WS;v1-0002;Alcedo_vol_1-0002
TopUrbiGroup10014;id_00018;1;Abeicas;Indigenous-political;Nación;-;;;Canada;Canada;area_sufficient;33,99567051;-85,74326894;14;Este grupo no ha sido revisado.;This group has not been looked at.;Ce groupe n'a pas été examiné.;;;;;;;;;;;;;;;;WS;v1-0003;Alcedo_vol_1-0003
TopUrbiGroup10019;id_00023;1;Abipones;Indigenous-political;Nación;-;;;Tucuman;Rio de la Plata;dummy_regional;-28,4081;-66,4681;19;Este grupo no ha sido revisado.;This group has not been looked at.;Ce groupe n'a pas été examiné.;;;;;;;;;;;;;;;;WS;v1-0004;Alcedo_vol_1-0004
TopUrbiGroup10024;id_00028;1;Abitigas;Indigenous-political;Nación;-;;;Tarma;Peru;dummy_regional;-10,8076;-76,0576;24;Este grupo no ha sido revisado.;This group has not been looked at.;Ce groupe n'a pas été examiné.;;;;;;;;;;;;;;;;WS;v1-0005;Alcedo_vol_1-0005
TopUrbiGroup10082;id_00084;1;Acaxee;Indigenous-political;Nación;-;;;Topia;Nueva Vizcaya;dummy_regional;24,8982;-106,6118;82;Este grupo no ha sido revisado.;This group has not been looked at.;Ce groupe n'a pas été examiné.;;;;;;;;;;;;;;;;WS;v1-0013;Alcedo_vol_1-0013
TopUrbiGroup10094;id_00096;1;Achagua;Indigenous-political;Nación;-;;;unspecified;Llanos;dummy_regional;6,0094;-73,7906;94;Este grupo no ha sido revisado.;This group has not been looked at.;Ce groupe n'a pas été examiné.;;;;;;;;;;;;;;;;WS;v1-0015;Alcedo_vol_1-0015
TopUrbiGroup10180;id_00181;1;Agaces;Indigenous-political;Nación;-;;;Paraguay;Rio de la Plata;dummy_regional;-25,202;-55,842;180;Este grupo no ha sido revisado.;This group has not been looked at.;Ce groupe n'a pas été examiné.;;;;;;;;;;;;;;;;WS;v1-0024;Alcedo_vol_1-0024
TopUrbiGroup10186;id_00187;1;Aunalos;Indigenous-political;Nación;-;;;unspecified;Llanos;dummy_regional;6,1186;-73,7814;186;Este grupo no ha sido revisado.;This group has not been looked at.;Ce groupe n'a pas été examiné.;;;;;;;;;;;;;;;;WS;v1-0025;Alcedo_vol_1-0025
TopUrbiGroup10192;id_00193;1;Agrias;Indigenous-political;Nación;-;;;Santa Marta;Nuevo Reyno de Granada;dummy_regional;10,7792;-74,0508;192;Este grupo no ha sido revisado.;This group has not been looked at.;Ce groupe n'a pas été examiné.;;;;;;;;;;;;;;;;WS;v1-0025;Alcedo_vol_1-0025
TopUrbiGroup10285;id_03835;1;Chiugotos;Indigenous-political;Nación;-;;;Venezuela;Venezuela;dummy_regional;9,8683;-68,0017;285;Este grupo no ha sido revisado.;This group has not been looked at.;Ce groupe n'a pas été examiné.;;;;;;;;;;;;;;;;WS;v1-0545;Alcedo_vol_1-0545
TopUrbiGroup10379;id_00278;1;Ahome;Indigenous-political;Nación;-;;;Sinaloa;Nueva Vizcaya;dummy_regional;25,8181;-108,2619;379;Este grupo no ha sido revisado.;This group has not been looked at.;Ce groupe n'a pas été examiné.;;;;;;;;;;;;;;;;WS;v1-0033;Alcedo_vol_1-0033
TopUrbiGroup10439;id_00338;1;Airicos;Indigenous-political;Nación;-;;;Nuevo Reyno de Granada;Nuevo Reyno de Granada;dummy_regional;4,6341;-74,0459;439;Este grupo no ha sido revisado.;This group has not been looked at.;Ce groupe n'a pas été examiné.;;;;;;;;;;;;;;;;WS;v1-0040;Alcedo_vol_1-0040
TopUrbiGroup10446;id_00345;1;Aiuinos;Indigenous-political;Nación;-;;;Sinaloa;Nueva Vizcaya;dummy_regional;25,8248;-108,2552;446;Este grupo no ha sido revisado.;This group has not been looked at.;Ce groupe n'a pas été examiné.;;;;;;;;;;;;;;;;WS;v1-0041;Alcedo_vol_1-0041
TopUrbiGroup10455;id_00354;1;Ajoues;Indigenous-political;Nación;-;;;Luisiana;Luisiana;zonal;42,68414677;-95,68482961;455;Este grupo no ha sido revisado.;This group has not been looked at.;Ce groupe n'a pas été examiné.;Este grupo ha sido mal categorizado en Alcedo.;This group has been miscategorized in Alcedo.;Ce groupe a été mal catégorisé dans Alcedo.;;;;;;;;;;;;;WS;v1-0042;Alcedo_vol_1-0042
TopUrbiGroup10457;id_00356;1;Akanceas;Indigenous-political;Nación;-;;;Luisiana;Luisiana;area_sufficient;33,85778911;-92,04429567;457;Este grupo no ha sido revisado.;This group has not been looked at.;Ce groupe n'a pas été examiné.;;;;;;;;;;;;;;;;WS;v1-0042;Alcedo_vol_1-0042
TopUrbiGroup10513;id_00411;1;Alcoholades;Indigenous-political;Nación;-;;;Venezuela;Venezuela;dummy_regional;9,6015;-68,0285;513;Este grupo no ha sido revisado.;This group has not been looked at.;Ce groupe n'a pas été examiné.;;;;;;;;;;;;;;;;WS;v1-0048;Alcedo_vol_1-0048
TopUrbiGroup10531;id_00429;1;Algonquinenses;Indigenous-political;Nación;-;;;Canada;Canada;dummy_regional;44,80311302;-77,31084521;531;Este grupo no ha sido revisado.;This group has not been looked at.;Ce groupe n'a pas été examiné.;;;;;;;;;;;;;;;;WS;v1-0050;Alcedo_vol_1-0050
TopUrbiGroup10536;id_00434;1;Alibamons;Indigenous-political;Nación;-;;;Luisiana;Middleground;area_sufficient;32,62550519;-86,76613715;536;Este grupo no ha sido revisado.;This group has not been looked at.;Ce groupe n'a pas été examiné.;;;;;;;;;;;;;;;;WS;v1-0050;Alcedo_vol_1-0050
TopUrbiGroup10543;id_00441;1;Alkansas;Indigenous-political;Nación;-;;;Canada;Canada;area_sufficient;33,84926887;-91,54215175;543;Este grupo no ha sido revisado.;This group has not been looked at.;Ce groupe n'a pas été examiné.;;;;;;;;;;;;;;;;WS;v1-0051;Alcedo_vol_1-0051
TopUrbiGroup10584;id_00709;1;Ancamares;Indigenous-political;Nación;-;;;Amazonas;Brasil;zonal;-3,77856138;-58,97043297;584;Este grupo no ha sido revisado.;This group has not been looked at.;Ce groupe n'a pas été examiné.;;;;;;;;;;;;;;;;CLD;v1-0090;Alcedo_vol_1-0090
TopUrbiGroup10585;id_00710;1;Ancas;Indigenous-political;Nación;-;;;Huaylas;Peru;dummy_regional;-9,4213;-77,5813;585;Este grupo no ha sido revisado.;This group has not been looked at.;Ce groupe n'a pas été examiné.;;;;;;;;;;;;;;;;WS;v1-0090;Alcedo_vol_1-0090
TopUrbiGroup10614;id_03874;1;Choques;Indigenous-political;Nación;-;;;Nuevo Reyno de Granada;Nuevo Reyno de Granada;dummy_regional;4,6516;-74,0284;614;Este grupo no ha sido revisado.;This group has not been looked at.;Ce groupe n'a pas été examiné.;;;;;;;;;;;;;;;;WS;v1-0553;Alcedo_vol_1-0553
TopUrbiGroup10617;id_03877;1;Choromoros;Indigenous-political;Nación;-;;;unspecified;Rio de la Plata;dummy_regional;-9,0381;-75,7481;617;Este grupo no ha sido revisado.;This group has not been looked at.;Ce groupe n'a pas été examiné.;;;;;;;;;;;;;;;;WS;v1-0553;Alcedo_vol_1-0553
TopUrbiGroup10653;id_02128;1;Borilos;Indigenous-political;Nación;-;;;Lima;Peru;dummy_regional;-11,7445;-75,7445;653;Este grupo no ha sido revisado.;This group has not been looked at.;Ce groupe n'a pas été examiné.;;;;;;;;;;;;;;;;WS;v1-0253;Alcedo_vol_1-0253
TopUrbiGroup10666;id_02141;1;Boros;Indigenous-political;Nación;-;;;Chiquitos;Santa Cruz de la Sierra;dummy_regional;-16,9632;-60,2632;666;Este grupo no ha sido revisado.;This group has not been looked at.;Ce groupe n'a pas été examiné.;;;;;;;;;;;;;;;;WS;v1-0255;Alcedo_vol_1-0255
TopUrbiGroup10717;id_00510;1;Amacaches;Indigenous-political;Nación;-;;;Rio de Janeiro;Brasil;zonal;-22,94366411;-44,03134155;717;Este grupo no ha sido revisado.;This group has not been looked at.;Ce groupe n'a pas été examiné.;;;;;;;;;;La existencia real de este grupo es dudosa.;The real existence of this group is doubtful.;L'existence réelle de ce groupe est douteuse.;;;;CLD;v1-0058;Alcedo_vol_1-0058
TopUrbiGroup10735;id_00528;1;Amamazos;Indigenous-political;Nación;-;;;unspecified;Maynas;dummy_regional;-9,2263;-75,7363;735;Este grupo no ha sido revisado.;This group has not been looked at.;Ce groupe n'a pas été examiné.;;;;;;;;;;;;;;;;WS;v1-0060;Alcedo_vol_1-0060
TopUrbiGroup10747;id_00540;1;Amapaes;Indigenous-political;Nación;-;;;Nueva Andalucia;Nueva Andalucia;dummy_regional;7,0649;-64,9351;747;Este grupo no ha sido revisado.;This group has not been looked at.;Ce groupe n'a pas été examiné.;;;;;;;;;;;;;;;;WS;v1-0061;Alcedo_vol_1-0061
TopUrbiGroup10798;id_00605;1;Amixocores;Indigenous-political;Nación;-;;;unspecified;Brasil;zonal;-22,76303762;-44,53479004;798;Este grupo no ha sido revisado.;This group has not been looked at.;Ce groupe n'a pas été examiné.;;;;;;;;;;La existencia real de este grupo es dudosa.;The real existence of this group is doubtful.;L'existence réelle de ce groupe est douteuse.;;;;CLD;v1-0081;Alcedo_vol_1-0081
TopUrbiGroup10815;id_00622;1;Ampones;Indigenous-political;Nación;-;;;Paraguay;Rio de la Plata;dummy_regional;-24,9183;-56,6283;815;Este grupo no ha sido revisado.;This group has not been looked at.;Ce groupe n'a pas été examiné.;;;;;;;;;;;;;;;;WS;v1-0082;Alcedo_vol_1-0082
TopUrbiGroup10822;id_00629;1;Amurcas;Indigenous-political;Nación;-;;;Nuevo Reyno de Granada;Nuevo Reyno de Granada;dummy_regional;4,6724;-74,0076;822;Este grupo no ha sido revisado.;This group has not been looked at.;Ce groupe n'a pas été examiné.;;;;;;;;;;;;;;;;WS;v1-0083;Alcedo_vol_1-0083
TopUrbiGroup10922;id_00744;1;Ancuteres;Indigenous-political;Nación;-;;;Quito;Quito;dummy_regional;-0,1876;-78,3176;922;Este grupo no ha sido revisado.;This group has not been looked at.;Ce groupe n'a pas été examiné.;;;;;;;;;;;;;;;;WS;v1-0093;Alcedo_vol_1-0093
TopUrbiGroup10947;id_00769;1;Andastes;Indigenous-political;Nación;-;;;Canada;Canada;dummy_regional;39,91557011;-76,9978494;947;Este grupo no ha sido revisado.;This group has not been looked at.;Ce groupe n'a pas été examiné.;;;;;;;;;;;;;;;;WS;v1-0097;Alcedo_vol_1-0097
TopUrbiGroup11046;id_00867;1;Anibalis;Indigenous-political;Nación;-;;;Nuevo Reyno de Granada;Nuevo Reyno de Granada;dummy_regional;4,6948;-73,9852;1046;Este grupo no ha sido revisado.;This group has not been looked at.;Ce groupe n'a pas été examiné.;;;;;;;;;;;;;;;;WS;v1-0111;Alcedo_vol_1-0111
TopUrbiGroup11064;id_00884;1;Annaciois;Indigenous-political;Nación;-;;;Portoseguro;Brasil;zonal;-12,6885761;-45,06251526;1064;Este grupo no ha sido revisado.;This group has not been looked at.;Ce groupe n'a pas été examiné.;;;;;;;;;;;;;;;;CLD;v1-0113;Alcedo_vol_1-0113
TopUrbiGroup11082;id_00902;1;Antalis;Indigenous-political;Nación;-;;;Coquimbo;Chile;dummy_regional;-30,1416;-70,7016;1082;Este grupo no ha sido revisado.;This group has not been looked at.;Ce groupe n'a pas été examiné.;;;;;;;;;;;;;;;;WS;v1-0116;Alcedo_vol_1-0116
TopUrbiGroup11184;id_01000;1;Apalaches;Indigenous-political;Nación;-;;;Florida;Luisiana;area_sufficient;30,64377755;-84,47215342;1184;Este grupo no ha sido revisado.;This group has not been looked at.;Ce groupe n'a pas été examiné.;;;;;;;;;;;;;;;;WS;v1-0127;Alcedo_vol_1-0127
TopUrbiGroup11186;id_01001;1;Apalaches;Indigenous-political;Nación;-;;;Luisiana;Luisiana;dummy_regional;30,83906626;-87,98813737;1186;Este grupo no ha sido revisado.;This group has not been looked at.;Ce groupe n'a pas été examiné.;Este grupo ha sido mal categorizado en Alcedo.;This group has been miscategorized in Alcedo.;Ce groupe a été mal catégorisé dans Alcedo.;;;;;;;;;;;;;WS;v1-0128;Alcedo_vol_1-0128
TopUrbiGroup11193;id_01008;1;Apantos;Indigenous-political;Nación;-;;;Guayaquil;Quito;dummy_regional;-2,1905;-79,9205;1193;Este grupo no ha sido revisado.;This group has not been looked at.;Ce groupe n'a pas été examiné.;;;;;;;;;;;;;;;;WS;v1-0128;Alcedo_vol_1-0128
TopUrbiGroup11204;id_01019;1;Aperas;Indigenous-political;Nación;-;;;Marañon;Brasil;area_sufficient;-3,61301;-59,62078;1204;Este grupo no ha sido revisado.;This group has not been looked at.;Ce groupe n'a pas été examiné.;;;;;;;;;;;;;;;;CLD;v1-0130;Alcedo_vol_1-0130
TopUrbiGroup11206;id_01021;1;Aperrues;Indigenous-political;Nación;-;;;Paraguay;Rio de la Plata;dummy_regional;-24,5892;-55,3392;1206;Este grupo no ha sido revisado.;This group has not been looked at.;Ce groupe n'a pas été examiné.;;;;;;;;;;;;;;;;WS;v1-0130;Alcedo_vol_1-0130
TopUrbiGroup11207;id_01022;1;Apetuos;Indigenous-political;Nación;-;;;Portoseguro;Brasil;zonal;-16,42883683;-39,5453186;1207;Este grupo no ha sido revisado.;This group has not been looked at.;Ce groupe n'a pas été examiné.;;;;;;;;;;La existencia real de este grupo es dudosa.;The real existence of this group is doubtful.;L'existence réelle de ce groupe est douteuse.;;;;CLD;v1-0130;Alcedo_vol_1-0130
TopUrbiGroup11210;id_01025;1;Apichiqui;Indigenous-political;Nación;-;;;Maynas;Maynas;dummy_regional;-0,4788;-76,7888;1210;Este grupo no ha sido revisado.;This group has not been looked at.;Ce groupe n'a pas été examiné.;;;;;;;;;;;;;;;;WS;v1-0130;Alcedo_vol_1-0130
TopUrbiGroup11228;id_01043;1;Apotos;Indigenous-political;Nación;-;;;Amazonas;Brasil;area_sufficient;-2,08165;-56,77178;1228;Este grupo no ha sido revisado.;This group has not been looked at.;Ce groupe n'a pas été examiné.;;;;;;;;;;;;;;;;CLD;v1-0133;Alcedo_vol_1-0133
TopUrbiGroup11237;id_01052;1;Apuies;Indigenous-political;Nación;-;;;Rio de Janeiro;Brasil;zonal;-22,49936562;-44,56773376;1237;Este grupo no ha sido revisado.;This group has not been looked at.;Ce groupe n'a pas été examiné.;;;;;;;;;;La existencia real de este grupo es dudosa.;The real existence of this group is doubtful.;L'existence réelle de ce groupe est douteuse.;;;;CLD;v1-0134;Alcedo_vol_1-0134
TopUrbiGroup11251;id_01066;1;Aquiguires;Indigenous-political;Nación;-;;;unspecified;Brasil;zonal;-20,22563061;-41,26074219;1251;Este grupo no ha sido revisado.;This group has not been looked at.;Ce groupe n'a pas été examiné.;;;;;;;;;;La existencia real de este grupo es dudosa.;The real existence of this group is doubtful.;L'existence réelle de ce groupe est douteuse.;;;;CLD;v1-0136;Alcedo_vol_1-0136
TopUrbiGroup11271;id_01086;1;Aracuyes;Indigenous-political;Nación;-;;;unspecified;Brasil;zonal;-8,7719233;-38,72964478;1271;Este grupo no ha sido revisado.;This group has not been looked at.;Ce groupe n'a pas été examiné.;;;;;;;;;;La existencia real de este grupo es dudosa.;The real existence of this group is doubtful.;L'existence réelle de ce groupe est douteuse.;;;;CLD;v1-0138;Alcedo_vol_1-0138
TopUrbiGroup11303;id_01118;1;Arasas;Indigenous-political;Nación;-;;;Maynas;Maynas;dummy_regional;-3,9795;-75,2795;1303;Este grupo no ha sido revisado.;This group has not been looked at.;Ce groupe n'a pas été examiné.;;;;;;;;;;;;;;;;WS;v1-0141;Alcedo_vol_1-0141
TopUrbiGroup11309;id_01124;1;Araucanos;Indigenous-political;Nación;-;https://pueblosoriginarios.com/;sur/patagonia/mapuche/mapuche.html;unspecified;Chile;area_well_placed;-38,59;-72;1309;Este grupo no ha sido revisado.;This group has not been looked at.;Ce groupe n'a pas été examiné.;;;;;;;;;;;;;;;;WS;v1-0142;Alcedo_vol_1-0142
TopUrbiGroup11340;id_01155;1;Ardas;Indigenous-political;Nación;-;;;Quijos;Maynas;dummy_regional;-3,7658;-73,7558;1340;Este grupo no ha sido revisado.;This group has not been looked at.;Ce groupe n'a pas été examiné.;;;;;;;;;;;;;;;;WS;v1-0146;Alcedo_vol_1-0146
TopUrbiGroup11364;id_01194;1;Arica;Indigenous-political;Nación;-;;;Luisiana;Luisiana;zonal;43,18977059;-97,73293995;1364;Este grupo no ha sido revisado.;This group has not been looked at.;Ce groupe n'a pas été examiné.;Este grupo ha sido mal categorizado en Alcedo.;This group has been miscategorized in Alcedo.;Ce groupe a été mal catégorisé dans Alcedo.;;;;;;;;;;;;;WS;v1-0154;Alcedo_vol_1-0154
TopUrbiGroup11372;id_01202;1;Aricaretis;Indigenous-political;Nación;-;;;Guayana;Nueva Andalucia;dummy_regional;0,595634816;-51,70141876;1372;Este grupo no ha sido revisado.;This group has not been looked at.;Ce groupe n'a pas été examiné.;;;;;;;;;;;;;;;;WS;v1-0155;Alcedo_vol_1-0155
TopUrbiGroup11376;id_01206;1;Aricoris;Indigenous-political;Nación;-;;;Dorado;Nueva Andalucia;dummy_regional;8,0278;-63,0722;1376;Este grupo no ha sido revisado.;This group has not been looked at.;Ce groupe n'a pas été examiné.;;;;;;;;;;;;;;;;WS;v1-0155;Alcedo_vol_1-0155
TopUrbiGroup11402;id_01232;1;Armiros;Indigenous-political;Nación;-;;;Paraguay;Rio de la Plata;dummy_regional;-22,9696;-54,1696;1402;Este grupo no ha sido revisado.;This group has not been looked at.;Ce groupe n'a pas été examiné.;;;;;;;;;;;;;;;;WS;v1-0158;Alcedo_vol_1-0158
TopUrbiGroup11403;id_01233;1;Armuciceses;Indigenous-political;Nación;-;;;Canada;Canada;dummy_regional;41,82665005;-77,22219048;1403;Este grupo no ha sido revisado.;This group has not been looked at.;Ce groupe n'a pas été examiné.;;;;;;;;;;;;;;;;WS;v1-0158;Alcedo_vol_1-0158
TopUrbiGroup11429;id_01259;1;Arrianicosies;Indigenous-political;Nación;-;;;Paraguay;Rio de la Plata;dummy_regional;-25,0569;-54,8769;1429;Este grupo no ha sido revisado.;This group has not been looked at.;Ce groupe n'a pas été examiné.;;;;;;;;;;;;;;;;WS;v1-0160;Alcedo_vol_1-0160
TopUrbiGroup11441;id_01271;1;Aruacas;Indigenous-political;Nación;-;;;Orinoco;Nueva Andalucia;dummy_regional;0,602334816;-51,69471876;1441;Este grupo no ha sido revisado.;This group has not been looked at.;Ce groupe n'a pas été examiné.;;;;;;;;;;;;;;;;WS;v1-0161;Alcedo_vol_1-0161
TopUrbiGroup11452;id_01282;1;Aruporecas;Indigenous-political;Nación;-;;;Chiquitos;Santa Cruz de la Sierra;dummy_regional;-16,6446;-60,1246;1452;Este grupo no ha sido revisado.;This group has not been looked at.;Ce groupe n'a pas été examiné.;;;;;;;;;;;;;;;;WS;v1-0162;Alcedo_vol_1-0162
TopUrbiGroup11491;id_02109;1;Bondas;Indigenous-political;Nación;-;;;Santa Marta;Nuevo Reyno de Granada;dummy_regional;10,6993;-73,7207;1491;Este grupo no ha sido revisado.;This group has not been looked at.;Ce groupe n'a pas été examiné.;;;;;;;;;;;;;;;;WS;v1-0252;Alcedo_vol_1-0252
TopUrbiGroup11567;id_01310;1;Assiniboleses;Indigenous-political;Nación;-;;;Canada;Canada;area_sufficient;49,29880724;-105,2342294;1567;Este grupo no ha sido revisado.;This group has not been looked at.;Ce groupe n'a pas été examiné.;;;;;;;;;;;;;;;;WS;v1-0165;Alcedo_vol_1-0165
TopUrbiGroup11598;id_01340;1;Atacapas;Indigenous-political;Nación;-;;;Luisiana;Middleground;area_sufficient;30,300391;-94,40255046;1598;Este grupo no ha sido revisado.;This group has not been looked at.;Ce groupe n'a pas été examiné.;;;;;;;;;;;;;;;;WS;v1-0169;Alcedo_vol_1-0169
TopUrbiGroup11615;id_01357;1;Atauillos;Indigenous-political;Nación;-;;;Jauja;Peru;dummy_regional;-11,8669;-75,2269;1615;Este grupo no ha sido revisado.;This group has not been looked at.;Ce groupe n'a pas été examiné.;;;;;;;;;;;;;;;;WS;v1-0171;Alcedo_vol_1-0171
TopUrbiGroup11638;id_01379;1;Atigouantines;Indigenous-political;Nación;-;;;Canada;Canada;dummy_regional;44,0554;-80,9446;1638;Este grupo no ha sido revisado.;This group has not been looked at.;Ce groupe n'a pas été examiné.;;;;;;;;;;;;;;;;WS;v1-0174;Alcedo_vol_1-0174
TopUrbiGroup11717;id_01458;1;Augaras;Indigenous-political;Nación;-;;;unspecified;Brasil;zonal;-16,41714329;-39,97372436;1717;Este grupo no ha sido revisado.;This group has not been looked at.;Ce groupe n'a pas été examiné.;;;;;;;;;;;;;;;;CLD;v1-0186;Alcedo_vol_1-0186
TopUrbiGroup11730;id_01471;1;Auoyelles;Indigenous-political;Nación;-;;;Luisiana;Luisiana;area_sufficient;31,17486154;-92,04508771;1730;Este grupo no ha sido revisado.;This group has not been looked at.;Ce groupe n'a pas été examiné.;;;;;;;;;;;;;;;;WS;v1-0187;Alcedo_vol_1-0187
TopUrbiGroup11739;id_01480;1;Autis;Indigenous-political;Nación;-;;;Tarma;Peru;dummy_regional;-10,4945;-76,0045;1739;Este grupo no ha sido revisado.;This group has not been looked at.;Ce groupe n'a pas été examiné.;;;;;;;;;;;;;;;;WS;v1-0188;Alcedo_vol_1-0188
TopUrbiGroup11751;id_01492;1;Ayacores;Indigenous-political;Nación;-;;;Quijos y Macas;Maynas;dummy_regional;-3,9333;-74,4333;1751;Este grupo no ha sido revisado.;This group has not been looked at.;Ce groupe n'a pas été examiné.;;;;;;;;;;;;;;;;WS;v1-0190;Alcedo_vol_1-0190
TopUrbiGroup11752;id_01493;1;Ayahuacas;Indigenous-political;Nación;-;;;unspecified;Quito;dummy_regional;-9,1732;-75,7332;1752;Este grupo no ha sido revisado.;This group has not been looked at.;Ce groupe n'a pas été examiné.;;;;;;;;;;;;;;;;WS;v1-0190;Alcedo_vol_1-0190
TopUrbiGroup11753;id_01494;1;Ayauiris;Indigenous-political;Nación;-;;;unspecified;Peru;dummy_regional;-9,2731;-75,7331;1753;Este grupo no ha sido revisado.;This group has not been looked at.;Ce groupe n'a pas été examiné.;;;;;;;;;;;;;;;;WS;v1-0190;Alcedo_vol_1-0190
TopUrbiGroup11754;id_01495;1;Ayenis;Indigenous-political;Nación;-;;;Florida;Luisiana;area_sufficient;31,55650274;-94,14807899;1754;Este grupo no ha sido revisado.;This group has not been looked at.;Ce groupe n'a pas été examiné.;;;;;;;;;;;;;;;;WS;v1-0190;Alcedo_vol_1-0190
TopUrbiGroup11827;id_01583;1;Bayagoulas;Indigenous-political;Nación;-;;;Luisiana;Luisiana;area_sufficient;30,07001466;-91,05842053;1827;Este grupo no ha sido revisado.;This group has not been looked at.;Ce groupe n'a pas été examiné.;Este grupo ha sido mal categorizado en Alcedo.;This group has been miscategorized in Alcedo.;Ce groupe a été mal catégorisé dans Alcedo.;;;;;;;;;;;;;WS;v1-0201;Alcedo_vol_1-0201
TopUrbiGroup11906;id_01660;1;Banomas;Indigenous-political;Nación;-;;;Quito;Quito;dummy_regional;-0,1878;-78,2878;1906;Este grupo no ha sido revisado.;This group has not been looked at.;Ce groupe n'a pas été examiné.;;;;;;;;;;;;;;;;WS;v1-0208;Alcedo_vol_1-0208
TopUrbiGroup11960;id_01714;1;Barbudos;Indigenous-political;Nación;-;;;Marañon;Brasil;dummy_regional;-3,9124;-65,4124;1960;Este grupo no ha sido revisado.;This group has not been looked at.;Ce groupe n'a pas été examiné.;;;;;;;;;;;;;;;;WS;v1-0214;Alcedo_vol_1-0214
TopUrbiGroup11961;id_01715;1;Barbures;Indigenous-political;Nación;-;;;unspecified;Nuevo Reyno de Granada;dummy_regional;6,2877;-73,7123;1961;Este grupo no ha sido revisado.;This group has not been looked at.;Ce groupe n'a pas été examiné.;;;;;;;;;;;;;;;;WS;v1-0214;Alcedo_vol_1-0214
TopUrbiGroup11970;id_01723;1;Barecyes;Indigenous-political;Nación;-;;;Paraguay;Rio de la Plata;dummy_regional;-22,9114;-54,7114;1970;Este grupo no ha sido revisado.;This group has not been looked at.;Ce groupe n'a pas été examiné.;;;;;;;;;;;;;;;;WS;v1-0216;Alcedo_vol_1-0216
TopUrbiGroup12046;id_01811;1;Bauros;Indigenous-political;Nación;-;;;Moxos;Maynas;dummy_regional;-13,6125;-64,9925;2046;Este grupo no ha sido revisado.;This group has not been looked at.;Ce groupe n'a pas été examiné.;;;;;;;;;;;;;;;;WS;v1-0226;Alcedo_vol_1-0226
TopUrbiGroup12069;id_01834;1;Becauas;Indigenous-political;Nación;-;;;Maynas;Maynas;dummy_regional;-3,9002;-74,5002;2069;Este grupo no ha sido revisado.;This group has not been looked at.;Ce groupe n'a pas été examiné.;;;;;;;;;;;;;;;;WS;v1-0228;Alcedo_vol_1-0228
TopUrbiGroup12268;id_02046;1;Bobures;Indigenous-political;Nación;-;;;Venezuela;Venezuela;dummy_regional;9,7697;-68,3103;2268;Este grupo no ha sido revisado.;This group has not been looked at.;Ce groupe n'a pas été examiné.;;;;;;;;;;;;;;;;WS;v1-0246;Alcedo_vol_1-0246
TopUrbiGroup12294;id_02071;1;Bodiguas;Indigenous-political;Nación;-;;;Santa Marta;Nuevo Reyno de Granada;dummy_regional;10,6823;-74,0277;2294;Este grupo no ha sido revisado.;This group has not been looked at.;Ce groupe n'a pas été examiné.;;;;;;;;;;;;;;;;WS;v1-0248;Alcedo_vol_1-0248
TopUrbiGroup12574;id_02299;1;Burais;Indigenous-political;Nación;-;;;Marañon;Brasil;area_well_placed;-3,3851474;-58,71451491;2574;Este grupo no ha sido revisado.;This group has not been looked at.;Ce groupe n'a pas été examiné.;;;;;;;;;;;;;;;;CLD;v1-0289;Alcedo_vol_1-0289
TopUrbiGroup12696;id_02421;1;Cadodaquis;Indigenous-political;Nación;-;;;Luisiana;Luisiana;zonal;32,44949447;-93,63285257;2696;Este grupo no ha sido revisado.;This group has not been looked at.;Ce groupe n'a pas été examiné.;Este grupo ha sido mal categorizado en Alcedo.;This group has been miscategorized in Alcedo.;Ce groupe a été mal catégorisé dans Alcedo.;;;;;;;;;;;;;WS;v1-0301;Alcedo_vol_1-0301
TopUrbiGroup12823;id_02577;1;Callisecas;Indigenous-political;Nación;-;;;unspecified;Maynas;dummy_regional;-9,3134;-75,7234;2823;Este grupo no ha sido revisado.;This group has not been looked at.;Ce groupe n'a pas été examiné.;;;;;;;;;;;;;;;;WS;v1-0320;Alcedo_vol_1-0320
TopUrbiGroup12875;id_02629;1;Camavos;Indigenous-political;Nación;-;;;Ucayli;Peru;dummy_regional;-8,4182;-75,0182;2875;Este grupo no ha sido revisado.;This group has not been looked at.;Ce groupe n'a pas été examiné.;;;;;;;;;;;;;;;;WS;v1-0326;Alcedo_vol_1-0326
TopUrbiGroup12879;id_02633;1;Cambas;Indigenous-political;Nación;-;;;Ucayali;Peru;dummy_regional;-8,4178;-74,9178;2879;Este grupo no ha sido revisado.;This group has not been looked at.;Ce groupe n'a pas été examiné.;;;;;;;;;;;;;;;;WS;v1-0327;Alcedo_vol_1-0327
TopUrbiGroup12957;id_02709;1;Canibales;Indigenous-political;Nación;-;;;Caribe;Caribe;dummy_regional;12,59;-61,91;2957;Este grupo no ha sido revisado.;This group has not been looked at.;Ce groupe n'a pas été examiné.;;;;;;;;;;;;;;;;WS;v1-0340;Alcedo_vol_1-0340
TopUrbiGroup12958;id_02710;1;Canicuaris;Indigenous-political;Nación;-;;;Marañon;Brasil;area_sufficient;-2,16266;-60,80209;2958;Este grupo no ha sido revisado.;This group has not been looked at.;Ce groupe n'a pas été examiné.;;;;;;;;;;;;;;;;CLD;v1-0341;Alcedo_vol_1-0341
TopUrbiGroup12960;id_02712;1;Caniouis;Indigenous-political;Nación;-;;;Luisiana;Luisiana;zonal;35,13044918;-93,0734628;2960;Este grupo no ha sido revisado.;This group has not been looked at.;Ce groupe n'a pas été examiné.;Este grupo ha sido mal categorizado en Alcedo.;This group has been miscategorized in Alcedo.;Ce groupe a été mal catégorisé dans Alcedo.;;;;;;;;;;;;;WS;v1-0341;Alcedo_vol_1-0341
TopUrbiGroup13092;id_02858;1;Carangues;Indigenous-political;Nación;-;;;Quito;Quito;dummy_regional;-0,265;-78,385;3092;Este grupo no ha sido revisado.;This group has not been looked at.;Ce groupe n'a pas été examiné.;;;;;;;;;;;;;;;;WS;v1-0368;Alcedo_vol_1-0368
TopUrbiGroup13149;id_02929;1;Caribes;Indigenous-political;Nación;-;;;Caribana;Nueva Andalucia;dummy_regional;7,5121;-59,4879;3149;Este grupo no ha sido revisado.;This group has not been looked at.;Ce groupe n'a pas été examiné.;;;;;;;;;;;;;;;;WS;v1-0376;Alcedo_vol_1-0376
TopUrbiGroup13226;id_03021;1;Caruparabas;Indigenous-political;Nación;-;;;unspecified;Brasil;area_sufficient;-1,22157;-61,73654;3226;Este grupo no ha sido revisado.;This group has not been looked at.;Ce groupe n'a pas été examiné.;;;;;;;;;;;;;;;;CLD;v1-0409;Alcedo_vol_1-0409
TopUrbiGroup13379;id_03182;1;Cauinas;Indigenous-political;Nación;-;;;Charcas;Charcas;dummy_regional;-15,23228602;-68,77117058;3379;Este grupo no ha sido revisado.;This group has not been looked at.;Ce groupe n'a pas été examiné.;;;;;;;;;;;;;;;;WS;v1-0427;Alcedo_vol_1-0427
TopUrbiGroup13382;id_03185;1;Caumares;Indigenous-political;Nación;-;;;Maynas;Maynas;dummy_regional;-4,8846;-75,6246;3382;Este grupo no ha sido revisado.;This group has not been looked at.;Ce groupe n'a pas été examiné.;;;;;;;;;;;;;;;;WS;v1-0427;Alcedo_vol_1-0427
TopUrbiGroup13385;id_03188;1;Cauos;Indigenous-political;Nación;-;;;Maynas;Maynas;dummy_regional;-3,9643;-74,6643;3385;Este grupo no ha sido revisado.;This group has not been looked at.;Ce groupe n'a pas été examiné.;;;;;;;;;;;;;;;;WS;v1-0427;Alcedo_vol_1-0427
TopUrbiGroup13389;id_03192;1;Cauquis;Indigenous-political;Nación;-;;;unspecified;Chile;dummy_regional;-38,5539;-72,0139;3389;Este grupo no ha sido revisado.;This group has not been looked at.;Ce groupe n'a pas été examiné.;;;;;;;;;;;;;;;;WS;v1-0427;Alcedo_vol_1-0427
TopUrbiGroup13444;id_03246;1;Cenis;Indigenous-political;Nación;-;;;Luisiana;Luisiana;zonal;31,54875521;-94,75067668;3444;Este grupo no ha sido revisado.;This group has not been looked at.;Ce groupe n'a pas été examiné.;Este grupo ha sido mal categorizado en Alcedo.;This group has been miscategorized in Alcedo.;Ce groupe a été mal catégorisé dans Alcedo.;;;;;;;;;;;;;WS;v1-0438;Alcedo_vol_1-0438
TopUrbiGroup13445;id_03247;1;Cenomonas;Indigenous-political;Nación;-;;;unspecified;Brasil;zonal;-3,14622872;-67,29355995;3445;Este grupo no ha sido revisado.;This group has not been looked at.;Ce groupe n'a pas été examiné.;;;;;;;;;;;;;;;;CLD;v1-0439;Alcedo_vol_1-0439
TopUrbiGroup13447;id_03249;1;Cenos;Indigenous-political;Nación;-;;;Marañon;Brasil;dummy_regional;-3,9581;-65,7581;3447;Este grupo no ha sido revisado.;This group has not been looked at.;Ce groupe n'a pas été examiné.;;;;;;;;;;;;;;;;WS;v1-0439;Alcedo_vol_1-0439
TopUrbiGroup13476;id_03277;1;Cesares;Indigenous-political;Nación;imaginary;;;unspecified;Chile;broad_area;-38,5952;-71,9552;3476;Este grupo no ha sido revisado.;This group has not been looked at.;Ce groupe n'a pas été examiné.;;;;;;;Este grupo es imaginario.;This group is imaginary.;Ce groupe est imaginaire.;;;;;;;WS;v1-0443;Alcedo_vol_1-0443
TopUrbiGroup13609;id_03407;1;Chaneses;Indigenous-political;Nación;-;;;Paraguay;Rio de la Plata;dummy_regional;-25,3419;-55,4719;3609;Este grupo no ha sido revisado.;This group has not been looked at.;Ce groupe n'a pas été examiné.;;;;;;;;;;;;;;;;WS;v1-0466;Alcedo_vol_1-0466
TopUrbiGroup13658;id_03456;1;Charcas;Indigenous-political;Nación;-;;;unspecified;Charcas;dummy_regional;-9,127;-75,737;3658;Este grupo no ha sido revisado.;This group has not been looked at.;Ce groupe n'a pas été examiné.;;;;;;;;;;;;;;;;WS;v1-0471;Alcedo_vol_1-0471
TopUrbiGroup13681;id_03479;1;Charruas;Indigenous-political;Nación;-;;;Paraguay;Rio de la Plata;dummy_regional;-32,9547;-59,5147;3681;Este grupo no ha sido revisado.;This group has not been looked at.;Ce groupe n'a pas été examiné.;;;;;;;;;;;;;;;;WS;v1-0476;Alcedo_vol_1-0476
TopUrbiGroup13782;id_03579;1;Cheuelus;Indigenous-political;Nación;-;;;Marañon;Brasil;dummy_regional;-3,9246;-65,8246;3782;Este grupo no ha sido revisado.;This group has not been looked at.;Ce groupe n'a pas été examiné.;;;;;;;;;;;;;;;;WS;v1-0485;Alcedo_vol_1-0485
TopUrbiGroup13835;id_03645;1;Chicuas;Indigenous-political;Nación;-;;;Condesuyos;Peru;dummy_regional;-15,3793;-72,4793;3835;Este grupo no ha sido revisado.;This group has not been looked at.;Ce groupe n'a pas été examiné.;;;;;;;;;;;;;;;;WS;v1-0502;Alcedo_vol_1-0502
TopUrbiGroup13906;id_03730;1;Chimilas;Indigenous-political;Nación;-;;;Santa Marta;Nuevo Reyno de Granada;dummy_regional;10,8478;-74,1322;3906;Este grupo no ha sido revisado.;This group has not been looked at.;Ce groupe n'a pas été examiné.;;;;;;;;;;;;;;;;WS;v1-0529;Alcedo_vol_1-0529
TopUrbiGroup13916;id_03740;1;Chinataguas;Indigenous-political;Nación;-;;;unspecified;Peru;dummy_regional;-9,0512;-75,7112;3916;Este grupo no ha sido revisado.;This group has not been looked at.;Ce groupe n'a pas été examiné.;;;;;;;;;;;;;;;;WS;v1-0530;Alcedo_vol_1-0530
TopUrbiGroup13918;id_03742;1;Chinatos;Indigenous-political;Nación;-;;;unspecified;Nuevo Reyno de Granada;dummy_regional;6,389;-73,711;3918;Este grupo no ha sido revisado.;This group has not been looked at.;Ce groupe n'a pas été examiné.;;;;;;;;;;;;;;;;WS;v1-0530;Alcedo_vol_1-0530
TopUrbiGroup13954;id_03778;1;Chipeos;Indigenous-political;Nación;-;;;Amazonas;Brasil;dummy_regional;-6,9074;-66,3074;3954;Este grupo no ha sido revisado.;This group has not been looked at.;Ce groupe n'a pas été examiné.;;;;;;;;;;;;;;;;WS;v1-0534;Alcedo_vol_1-0534
TopUrbiGroup13958;id_03782;1;Chiquiguanitas;Indigenous-political;Nación;-;;;Condesuyos;Peru;dummy_regional;-15,387;-72,697;3958;Este grupo no ha sido revisado.;This group has not been looked at.;Ce groupe n'a pas été examiné.;;;;;;;;;;;;;;;;WS;v1-0534;Alcedo_vol_1-0534
TopUrbiGroup13965;id_03789;1;Chiquitos;Indigenous-political;Nación;-;;;Santa Cruz de la Sierra;Santa Cruz de la Sierra;dummy_regional;-17,3563;-59,8463;3965;Este grupo no ha sido revisado.;This group has not been looked at.;Ce groupe n'a pas été examiné.;;;;;;;;;;;;;;;;WS;v1-0535;Alcedo_vol_1-0535
TopUrbiGroup13975;id_03799;1;Chiricoas;Indigenous-political;Nación;-;;;unspecified;Llanos;dummy_regional;6,4947;-73,7053;3975;Este grupo no ha sido revisado.;This group has not been looked at.;Ce groupe n'a pas été examiné.;;;;;;;;;;;;;;;;WS;v1-0540;Alcedo_vol_1-0540
TopUrbiGroup14000;id_03824;1;Chitanos;Indigenous-political;Nación;-;;;Nuevo Reyno de Granada;Nuevo Reyno de Granada;dummy_regional;4,6972;-73,9828;4000;Este grupo no ha sido revisado.;This group has not been looked at.;Ce groupe n'a pas été examiné.;;;;;;;;;;;;;;;;WS;v1-0544;Alcedo_vol_1-0544
TopUrbiGroup14002;id_03826;1;Chitareros;Indigenous-political;Nación;-;;;Nuevo Reyno de Granada;Nuevo Reyno de Granada;dummy_regional;4,6974;-73,9826;4002;Este grupo no ha sido revisado.;This group has not been looked at.;Ce groupe n'a pas été examiné.;;;;;;;;;;;;;;;;WS;v1-0544;Alcedo_vol_1-0544
TopUrbiGroup14073;id_03944;1;Chudauiñas;Indigenous-political;Nación;-;;;unspecified;Quito;dummy_regional;0,00599249;-76,7941;4073;Este grupo no ha sido revisado.;This group has not been looked at.;Ce groupe n'a pas été examiné.;;;;;;;;;;;;;;;;WS;v1-0562;Alcedo_vol_1-0562
TopUrbiGroup14076;id_03947;1;Chufias;Indigenous-political;Nación;-;;;Maynas;Maynas;dummy_regional;-3,9938;-74,7938;4076;Este grupo no ha sido revisado.;This group has not been looked at.;Ce groupe n'a pas été examiné.;;;;;;;;;;;;;;;;WS;v1-0562;Alcedo_vol_1-0562
TopUrbiGroup14102;id_03973;1;Chunanas;Indigenous-political;Nación;-;;;Cuzco;Peru;dummy_regional;-13,5212;-71,9212;4102;Este grupo no ha sido revisado.;This group has not been looked at.;Ce groupe n'a pas été examiné.;;;;;;;;;;;;;;;;WS;v1-0565;Alcedo_vol_1-0565
TopUrbiGroup14111;id_03982;1;Chunchos;Indigenous-political;Nación;-;;;Tarma;Peru;dummy_regional;-10,8103;-75,6303;4111;Este grupo no ha sido revisado.;This group has not been looked at.;Ce groupe n'a pas été examiné.;;;;;;;;;;;;;;;;WS;v1-0566;Alcedo_vol_1-0566
TopUrbiGroup14114;id_03985;1;Chunianis;Indigenous-political;Nación;-;;;Tierras Magallanicas;Patagonia-Araucania;dummy_regional;-42,99;-72,99;4114;Este grupo no ha sido revisado.;This group has not been looked at.;Ce groupe n'a pas été examiné.;;;;;;;;;;;;;;;;WS;v1-0567;Alcedo_vol_1-0567
TopUrbiGroup14147;id_04017;1;Chuscos;Indigenous-political;Nación;-;;;Panatahuas;Peru;dummy_regional;-9,6867;-75,9867;4147;Este grupo no ha sido revisado.;This group has not been looked at.;Ce groupe n'a pas été examiné.;;;;;;;;;;;;;;;;WS;v1-0577;Alcedo_vol_1-0577
TopUrbiGroup14148;id_04018;1;Chyaizaques;Indigenous-political;Nación;-;;;Nuevo Reyno de Granada;Nuevo Reyno de Granada;dummy_regional;4,6134;-74,0666;4148;Este grupo no ha sido revisado.;This group has not been looked at.;Ce groupe n'a pas été examiné.;;;;;;;;;;;;;;;;WS;v1-0577;Alcedo_vol_1-0577
TopUrbiGroup14169;id_04039;1;Cingacuchuscas;Indigenous-political;Nación;-;;;Marañon;Brasil;dummy_regional;-3,9845;-65,9845;4169;Este grupo no ha sido revisado.;This group has not been looked at.;Ce groupe n'a pas été examiné.;;;;;;;;;;;;;;;;WS;v1-0583;Alcedo_vol_1-0583
TopUrbiGroup14183;id_04053;1;Ciriones;Indigenous-political;Nación;-;;;Moxos;Maynas;dummy_regional;-13,7131;-65,4431;4183;Este grupo no ha sido revisado.;This group has not been looked at.;Ce groupe n'a pas été examiné.;;;;;;;;;;;;;;;;WS;v1-0585;Alcedo_vol_1-0585
TopUrbiGroup14293;id_04163;1;Cocamas;Indigenous-political;Nación;-;;;Amazonas;Brasil;dummy_regional;-6,9721;-66,2721;4293;Este grupo no ha sido revisado.;This group has not been looked at.;Ce groupe n'a pas été examiné.;;;;;;;;;;;;;;;;WS;v1-0599;Alcedo_vol_1-0599
TopUrbiGroup14330;id_04199;1;Cocmonomas;Indigenous-political;Nación;-;;;Huanuco;Peru;dummy_regional;-9,7984;-76,0384;4330;Este grupo no ha sido revisado.;This group has not been looked at.;Ce groupe n'a pas été examiné.;;;;;;;;;;;;;;;;WS;v1-0604;Alcedo_vol_1-0604
TopUrbiGroup14364;id_04232;1;Cofanes;Indigenous-political;Nación;-;;;unspecified;Quito;dummy_regional;0,03509249;-76,865;4364;Este grupo no ha sido revisado.;This group has not been looked at.;Ce groupe n'a pas été examiné.;;;;;;;;;;;;;;;;WS;v1-0606;Alcedo_vol_1-0606
TopUrbiGroup14394;id_04262;1;Colapisas;Indigenous-political;Nación;-;;;Luisiana;Luisiana;zonal;30,36239782;-89,98368301;4394;Este grupo no ha sido revisado.;This group has not been looked at.;Ce groupe n'a pas été examiné.;Este grupo ha sido mal categorizado en Alcedo.;This group has been miscategorized in Alcedo.;Ce groupe a été mal catégorisé dans Alcedo.;;;;;;;;;;;;;WS;v1-0610;Alcedo_vol_1-0610
TopUrbiGroup14421;id_04289;1;Colimas;Indigenous-political;Nación;-;;;Colima;Nueva Galicia;dummy_regional;19,1807;-103,8893;4421;Este grupo no ha sido revisado.;This group has not been looked at.;Ce groupe n'a pas été examiné.;;;;;;;;;;;;;;;;WS;v1-0614;Alcedo_vol_1-0614
TopUrbiGroup14450;id_04332;1;Colorados;Indigenous-political;Nación;-;;;Latacunga;Quito;dummy_regional;-0,855;-78,925;4450;Este grupo no ha sido revisado.;This group has not been looked at.;Ce groupe n'a pas été examiné.;;;;;;;;;;;;;;;;WS;v1-0620;Alcedo_vol_1-0620
TopUrbiGroup14624;id_04506;1;Coniguas;Indigenous-political;Nación;-;;;Tarma;Peru;dummy_regional;-10,4976;-75,2876;4624;Este grupo no ha sido revisado.;This group has not been looked at.;Ce groupe n'a pas été examiné.;;;;;;;;;;;;;;;;WS;v1-0644;Alcedo_vol_1-0644
TopUrbiGroup14818;id_04693;1;Coscaocoas;Indigenous-political;Nación;-;;;Lamas;Peru;dummy_regional;-5,9182;-75,9182;4818;Este grupo no ha sido revisado.;This group has not been looked at.;Ce groupe n'a pas été examiné.;;;;;;;;;;;;;;;;WS;v1-0668;Alcedo_vol_1-0668
TopUrbiGroup14822;id_04697;1;Coseremonianos;Indigenous-political;Nación;-;;;Moxos;Maynas;dummy_regional;-13,3178;-64,7378;4822;Este grupo no ha sido revisado.;This group has not been looked at.;Ce groupe n'a pas été examiné.;;;;;;;;;;;;;;;;WS;v1-0668;Alcedo_vol_1-0668
TopUrbiGroup14892;id_04766;1;Coyaimas;Indigenous-political;Nación;-;;;Popayan;Popayan;dummy_regional;2,3692;-76,7508;4892;Este grupo no ha sido revisado.;This group has not been looked at.;Ce groupe n'a pas été examiné.;;;;;;;;;;;;;;;;WS;v1-0677;Alcedo_vol_1-0677
TopUrbiGroup14893;id_04767;1;Coyones;Indigenous-political;Nación;-;;;Tocuyo;Venezuela;dummy_regional;10,0893;-69,9107;4893;Este grupo no ha sido revisado.;This group has not been looked at.;Ce groupe n'a pas été examiné.;;;;;;;;;;;;;;;;WS;v1-0678;Alcedo_vol_1-0678
TopUrbiGroup15024;id_04896;1;Cuchigaros;Indigenous-political;Nación;-;;;Marañon;Brasil;area_well_placed;-3,70822936;-61,48754519;5024;Este grupo no ha sido revisado.;This group has not been looked at.;Ce groupe n'a pas été examiné.;;;;;;;;;;;;;;;;CLD;v1-0706;Alcedo_vol_1-0706
TopUrbiGroup15120;id_05006;1;Cumayaris;Indigenous-political;Nación;-;;;Cumana;Nueva Andalucia;zonal;-5,62424671;-63,70821713;5120;Este grupo no ha sido revisado.;This group has not been looked at.;Ce groupe n'a pas été examiné.;;;;;;;;;;;;;;;;CLD;v1-0725;Alcedo_vol_1-0725
TopUrbiGroup15146;id_05031;1;Cungies;Indigenous-political;Nación;-;;;Maynas;Maynas;dummy_regional;-3,9854;-74,8854;5146;Este grupo no ha sido revisado.;This group has not been looked at.;Ce groupe n'a pas été examiné.;;;;;;;;;;;;;;;;WS;v1-0727;Alcedo_vol_1-0727
TopUrbiGroup15148;id_05033;1;Cuniuos;Indigenous-political;Nación;-;;;Amazonas;Brasil;dummy_regional;-6,9852;-66,1852;5148;Este grupo no ha sido revisado.;This group has not been looked at.;Ce groupe n'a pas été examiné.;;;;;;;;;;;;;;;;WS;v1-0727;Alcedo_vol_1-0727
TopUrbiGroup15180;id_05065;1;Curanaris;Indigenous-political;Nación;-;;;Marañon;Brasil;zonal;-4,44943334;-59,59756148;5180;Este grupo no ha sido revisado.;This group has not been looked at.;Ce groupe n'a pas été examiné.;;;;;;;;;;;;;;;;CLD;v1-0730;Alcedo_vol_1-0730
TopUrbiGroup15206;id_05091;1;Curiguires;Indigenous-political;Nación;-;;;Cumana;Nueva Andalucia;area_sufficient;-5,56471505;-63,85924427;5206;Este grupo no ha sido revisado.;This group has not been looked at.;Ce groupe n'a pas été examiné.;;;;;;;;;;;;;;;;CLD;v1-0734;Alcedo_vol_1-0734
TopUrbiGroup15208;id_05093;1;Curinas;Indigenous-political;Nación;-;https://pt.wikipedia.org/wiki/;Culinas;Marañon;Brasil;area_sufficient;-3,62580096;-59,97263449;5208;Este grupo no ha sido revisado.;This group has not been looked at.;Ce groupe n'a pas été examiné.;;;;;;;;;;;;;;;;CLD;v1-0734;Alcedo_vol_1-0734
TopUrbiGroup15222;id_05107;1;Curucuanes;Indigenous-political;Nación;-;;;Chaco;Rio de la Plata;dummy_regional;-26,9778;-61,4778;5222;Este grupo no ha sido revisado.;This group has not been looked at.;Ce groupe n'a pas été examiné.;;;;;;;;;;;;;;;;WS;v1-0735;Alcedo_vol_1-0735
TopUrbiGroup15239;id_05124;1;Curuzicaris;Indigenous-political;Nación;-;;;Brasil;Brasil;dummy_regional;-10,9761;-49,4761;5239;Este grupo no ha sido revisado.;This group has not been looked at.;Ce groupe n'a pas été examiné.;;;;;;;;;;;;;;;;WS;v1-0737;Alcedo_vol_1-0737
TopUrbiGroup15250;id_05135;1;Cusicas;Indigenous-political;Nación;-;;;Chiquitos;Santa Cruz de la Sierra;dummy_regional;-16,475;-60,175;5250;Este grupo no ha sido revisado.;This group has not been looked at.;Ce groupe n'a pas été examiné.;;;;;;;;;;;;;;;;WS;v1-0738;Alcedo_vol_1-0738
TopUrbiGroup15265;id_05150;1;Cutquiscanas;Indigenous-political;Nación;-;;;Panatahuas;Peru;dummy_regional;-9,6835;-76,0735;5265;Este grupo no ha sido revisado.;This group has not been looked at.;Ce groupe n'a pas été examiné.;;;;;;;;;;;;;;;;WS;v1-0739;Alcedo_vol_1-0739
TopUrbiGroup15473;id_06029;2;Fimayos;Indigenous-political;Nación;-;;;unspecified;Maynas;dummy_regional;-9,0122;-75,7722;5473;Este grupo no ha sido revisado.;This group has not been looked at.;Ce groupe n'a pas été examiné.;;;;;;;;;;;;;;;;WS;v2-0140;Alcedo_vol_2-0140
TopUrbiGroup15512;id_08558;2;Kanaatinos;Indigenous-political;Nación;-;;;Luisiana;Luisiana;zonal;33,27300311;-99,47883884;5512;Este grupo no ha sido revisado.;This group has not been looked at.;Ce groupe n'a pas été examiné.;Este grupo ha sido mal categorizado en Alcedo.;This group has been miscategorized in Alcedo.;Ce groupe a été mal catégorisé dans Alcedo.;;;;;;;;;;;;;WS;v2-0536;Alcedo_vol_2-0536
TopUrbiGroup15513;id_08559;2;Kanses;Indigenous-political;Nación;-;;;Luisiana;Luisiana;zonal;40,05404036;-95,57050854;5513;Este grupo no ha sido revisado.;This group has not been looked at.;Ce groupe n'a pas été examiné.;Este grupo ha sido mal categorizado en Alcedo.;This group has been miscategorized in Alcedo.;Ce groupe a été mal catégorisé dans Alcedo.;;;;;;;;;;;;;WS;v2-0536;Alcedo_vol_2-0536
TopUrbiGroup15518;id_08564;2;Kappas;Indigenous-political;Tribu;-;;;Luisiana;Luisiana;dummy_regional;31,6321;-92,7479;5518;Este grupo no ha sido revisado.;This group has not been looked at.;Ce groupe n'a pas été examiné.;;;;;;;;;;;;;;;;WS;v2-0537;Alcedo_vol_2-0537
TopUrbiGroup15679;id_05516;2;Doas;Indigenous-political;Nación;-;;;Tocaima;Nuevo Reyno de Granada;dummy_regional;4,4484;-74,5816;5679;Este grupo no ha sido revisado.;This group has not been looked at.;Ce groupe n'a pas été examiné.;;;;;;;;;;;;;;;;WS;v2-0022;Alcedo_vol_2-0022
TopUrbiGroup15743;id_05579;2;Doymas;Indigenous-political;Nación;-;;;unspecified;Nuevo Reyno de Granada;dummy_regional;6,5648;-73,7352;5743;Este grupo no ha sido revisado.;This group has not been looked at.;Ce groupe n'a pas été examiné.;;;;;;;;;;;;;;;;WS;v2-0048;Alcedo_vol_2-0048
TopUrbiGroup15746;id_05582;2;Draguitas;Indigenous-political;Nación;-;;;Tucuman;Rio de la Plata;dummy_regional;-27,5349;-66,2849;5746;Este grupo no ha sido revisado.;This group has not been looked at.;Ce groupe n'a pas été examiné.;;;;;;;;;;;;;;;;WS;v2-0048;Alcedo_vol_2-0048
TopUrbiGroup15859;id_05713;2;Encabellados;Indigenous-political;Nación;-;;;Sucumbios;Popayan;dummy_regional;0,3864;-76,7936;5859;Este grupo no ha sido revisado.;This group has not been looked at.;Ce groupe n'a pas été examiné.;;;;;;;;;;;;;;;;WS;v2-0068;Alcedo_vol_2-0068
TopUrbiGroup15880;id_05748;2;Eparagois;Indigenous-political;Nación;-;;;Nueva Andalucia;Venezuela;dummy_regional;10,0799;-69,9201;5880;Este grupo no ha sido revisado.;This group has not been looked at.;Ce groupe n'a pas été examiné.;;;;;;;;;;;;;;;;WS;v2-0072;Alcedo_vol_2-0072
TopUrbiGroup15889;id_05757;2;Eries;Indigenous-political;Nación;-;;;Canada;Canada;area_sufficient;41,3370807;-81,30635932;5889;Este grupo no ha sido revisado.;This group has not been looked at.;Ce groupe n'a pas été examiné.;;;;;;;;;;;;;;;;WS;v2-0073;Alcedo_vol_2-0073
TopUrbiGroup15991;id_07863;2;Ipapuisas;Indigenous-political;Nación;-;;;unspecified;Quito;dummy_regional;-0,399;-76,809;5991;Este grupo no ha sido revisado.;This group has not been looked at.;Ce groupe n'a pas été examiné.;;;;;;;;;;;;;;;;WS;v2-0449;Alcedo_vol_2-0449
TopUrbiGroup16003;id_07875;2;Ipillos;Indigenous-political;Nación;-;;;Tarma;Peru;dummy_regional;-10,4878;-75,5978;6003;Este grupo no ha sido revisado.;This group has not been looked at.;Ce groupe n'a pas été examiné.;;;;;;;;;;;;;;;;WS;v2-0450;Alcedo_vol_2-0450
TopUrbiGroup16049;id_09285;2;Macauinas;Indigenous-political;Nación;-;;;Maynas;Maynas;dummy_regional;-3,9032;-75,9032;6049;Este grupo no ha sido revisado.;This group has not been looked at.;Ce groupe n'a pas été examiné.;;;;;;;;;;;;;;;;WS;v3-0006;Alcedo_vol_3-0006
TopUrbiGroup16084;id_10944;2;Nebome;Indigenous-political;Nación;-;;;Nueva Vizcaya;Nueva Vizcaya;dummy_regional;27,0003;-108,9997;6084;Este grupo no ha sido revisado.;This group has not been looked at.;Ce groupe n'a pas été examiné.;;;;;;;;;;;;;;;;WS;v3-0300;Alcedo_vol_3-0300
TopUrbiGroup16157;id_05828;2;Esquimaux;Indigenous-political;Nación;-;;;unspecified;Canada;dummy_regional;44,0076;-81,2924;6157;Este grupo no ha sido revisado.;This group has not been looked at.;Ce groupe n'a pas été examiné.;;;;;;;;;;;;;;;;WS;v2-0096;Alcedo_vol_2-0096
TopUrbiGroup16494;id_06199;2;Frascavinas;Indigenous-political;Nación;-;;;Maynas;Maynas;dummy_regional;-3,9549;-74,9549;6494;Este grupo no ha sido revisado.;This group has not been looked at.;Ce groupe n'a pas été examiné.;;;;;;;;;;;;;;;;WS;v2-0163;Alcedo_vol_2-0163
TopUrbiGroup16505;id_06210;2;Frentones;Indigenous-political;Nación;-;;;unspecified;Charcas;dummy_regional;-8,9438;-75,7538;6505;Este grupo no ha sido revisado.;This group has not been looked at.;Ce groupe n'a pas été examiné.;;;;;;;;;;;;;;;;WS;v2-0164;Alcedo_vol_2-0164
TopUrbiGroup16647;id_06349;2;Gavains;Indigenous-political;Nación;-;;;Amazonas;Brasil;zonal;-3,10335126;-67,12518679;6647;Este grupo no ha sido revisado.;This group has not been looked at.;Ce groupe n'a pas été examiné.;;;;;;;;;;;;;;;;CLD;v2-0188;Alcedo_vol_2-0188
TopUrbiGroup16708;id_06995;2;Guenoas;Indigenous-political;Nación;-;;;Paraguay;Rio de la Plata;dummy_regional;-33,2835;-54,9635;6708;Este grupo no ha sido revisado.;This group has not been looked at.;Ce groupe n'a pas été examiné.;;;;;;;;;;;;;;;;WS;v2-0338;Alcedo_vol_2-0338
TopUrbiGroup16746;id_08040;2;Itotos;Indigenous-political;Nación;-;;;Santa Marta;Nuevo Reyno de Granada;dummy_regional;10,9503;-73,9197;6746;Este grupo no ha sido revisado.;This group has not been looked at.;Ce groupe n'a pas été examiné.;;;;;;;;;;;;;;;;WS;v2-0469;Alcedo_vol_2-0469
TopUrbiGroup16749;id_08043;2;Itucales;Indigenous-political;Nación;-;;;Marañon;Brasil;dummy_regional;-3,9294;-66,8294;6749;Este grupo no ha sido revisado.;This group has not been looked at.;Ce groupe n'a pas été examiné.;;;;;;;;;;;;;;;;WS;v2-0469;Alcedo_vol_2-0469
TopUrbiGroup16791;id_06423;2;Giraharas;Indigenous-political;Nación;-;;;Venezuela;Venezuela;dummy_regional;9,5948;-67,8052;6791;Este grupo no ha sido revisado.;This group has not been looked at.;Ce groupe n'a pas été examiné.;;;;;;;;;;;;;;;;WS;v2-0199;Alcedo_vol_2-0199
TopUrbiGroup16865;id_06494;2;Goyoguin;Indigenous-political;Cantón;-;;;Acadia;Canada;dummy_provincial;46,46502214;-63,8617732;6865;Este grupo no ha sido revisado.;This group has not been looked at.;Ce groupe n'a pas été examiné.;;;;;;;;;;;;;;;;WS;v2-0206;Alcedo_vol_2-0206
TopUrbiGroup16968;id_06597;2;Guacares;Indigenous-political;Nación;-;;;Amazonas;Brasil;area_sufficient;-1,99999;-56,96954;6968;Este grupo no ha sido revisado.;This group has not been looked at.;Ce groupe n'a pas été examiné.;;;;;;;;;;;;;;;;CLD;v2-0236;Alcedo_vol_2-0236
TopUrbiGroup16987;id_06616;2;Guacicos;Indigenous-political;Nación;-;;;Nuevo Reyno de Granada;Nuevo Reyno de Granada;dummy_regional;4,6944;-73,9856;6987;Este grupo no ha sido revisado.;This group has not been looked at.;Ce groupe n'a pas été examiné.;;;;;;;;;;;;;;;;WS;v2-0238;Alcedo_vol_2-0238
TopUrbiGroup17011;id_06653;2;Guaibas;Indigenous-political;Nación;-;;;unspecified;Llanos;dummy_regional;6,6968;-73,7032;7011;Este grupo no ha sido revisado.;This group has not been looked at.;Ce groupe n'a pas été examiné.;;;;;;;;;;;;;;;;WS;v2-0253;Alcedo_vol_2-0253
TopUrbiGroup17013;id_06655;2;Guaicures;Indigenous-political;Nación;-;;;Paraguay;Rio de la Plata;dummy_regional;-24,283;-58,383;7013;Este grupo no ha sido revisado.;This group has not been looked at.;Ce groupe n'a pas été examiné.;;;;;;;;;;;;;;;;WS;v2-0254;Alcedo_vol_2-0254
TopUrbiGroup17030;id_06672;2;Guaiquiries;Indigenous-political;Nación;-;;;Orinoco;Nueva Andalucia;dummy_regional;0,666434816;-51,63061876;7030;Este grupo no ha sido revisado.;This group has not been looked at.;Ce groupe n'a pas été examiné.;;;;;;;;;;;;;;;;WS;v2-0257;Alcedo_vol_2-0257
TopUrbiGroup17038;id_06680;2;Guaitacasios;Indigenous-political;Nación;-;;;Ilheos;Brasil;area_sufficient;-14,80303967;-39,09290504;7038;Este grupo no ha sido revisado.;This group has not been looked at.;Ce groupe n'a pas été examiné.;;;;;;;;;;;;;;;;CLD;v2-0259;Alcedo_vol_2-0259
TopUrbiGroup17044;id_06686;2;Guajiros;Indigenous-political;Nación;-;;;Santa Marta;Nuevo Reyno de Granada;dummy_regional;10,8801;-74,2299;7044;Este grupo no ha sido revisado.;This group has not been looked at.;Ce groupe n'a pas été examiné.;;;;;;;;;;;;;;;;WS;v2-0260;Alcedo_vol_2-0260
TopUrbiGroup17092;id_06734;2;Guamos;Indigenous-political;Nación;-;;;Llanos;Llanos;dummy_regional;6,2531;-73,6362;7092;Este grupo no ha sido revisado.;This group has not been looked at.;Ce groupe n'a pas été examiné.;;;;;;;;;;;;;;;;WS;v2-0274;Alcedo_vol_2-0274
TopUrbiGroup17110;id_06752;2;Guañanas;Indigenous-political;Nación;-;;;Paraguay;Rio de la Plata;dummy_regional;-22,9933;-54,5933;7110;Este grupo no ha sido revisado.;This group has not been looked at.;Ce groupe n'a pas été examiné.;;;;;;;;;;;;;;;;WS;v2-0277;Alcedo_vol_2-0277
TopUrbiGroup17140;id_06781;2;Guaneros;Indigenous-political;Nación;-;;;unspecified;Llanos;dummy_regional;6,7097;-73,7903;7140;Este grupo no ha sido revisado.;This group has not been looked at.;Ce groupe n'a pas été examiné.;;;;;;;;;;;;;;;;WS;v2-0282;Alcedo_vol_2-0282
TopUrbiGroup17150;id_06791;2;Guanoas;Indigenous-political;Nación;-;;;Paraguay;Rio de la Plata;dummy_regional;-33,2693;-54,9693;7150;Este grupo no ha sido revisado.;This group has not been looked at.;Ce groupe n'a pas été examiné.;;;;;;;;;;;;;;;;WS;v2-0283;Alcedo_vol_2-0283
TopUrbiGroup17160;id_06801;2;Guapachos;Indigenous-political;Nación;-;;;Tucuman;Rio de la Plata;dummy_regional;-28,0883;-63,9283;7160;Este grupo no ha sido revisado.;This group has not been looked at.;Ce groupe n'a pas été examiné.;;;;;;;;;;;;;;;;WS;v2-0288;Alcedo_vol_2-0288
TopUrbiGroup17171;id_06812;2;Guapis;Indigenous-political;Nación;-;;;Nuevo Reyno de Granada;Nuevo Reyno de Granada;area_sufficient;3,95950307;-74,18099122;7171;Este grupo no ha sido revisado.;This group has not been looked at.;Ce groupe n'a pas été examiné.;;;;;;;;;;;;;;;;WS;v2-0289;Alcedo_vol_2-0289
TopUrbiGroup17181;id_06822;2;Guaracaponos;Indigenous-political;Nación;-;;;unspecified;Llanos;dummy_regional;6,8138;-73,7862;7181;Este grupo no ha sido revisado.;This group has not been looked at.;Ce groupe n'a pas été examiné.;;;;;;;;;;;;;;;;WS;v2-0290;Alcedo_vol_2-0290
TopUrbiGroup17187;id_06828;2;Guaraicus;Indigenous-political;Nación;-;;;Maynas;Maynas;dummy_regional;-3,9856;-75,0856;7187;Este grupo no ha sido revisado.;This group has not been looked at.;Ce groupe n'a pas été examiné.;;;;;;;;;;;;;;;;WS;v2-0290;Alcedo_vol_2-0290
TopUrbiGroup17193;id_06834;2;Guaranacacos;Indigenous-political;Nación;-;;;Marañon;Brasil;area_sufficient;-3,2391;-58,90845;7193;Este grupo no ha sido revisado.;This group has not been looked at.;Ce groupe n'a pas été examiné.;;;;;;;;;;;;;;;;CLD;v2-0291;Alcedo_vol_2-0291
TopUrbiGroup17195;id_06836;2;Guaranis;Indigenous-political;Nación;-;;;Paraguay;Rio de la Plata;dummy_regional;-28,0248;-56,1848;7195;Este grupo no ha sido revisado.;This group has not been looked at.;Ce groupe n'a pas été examiné.;;;;;;;;;;;;;;;;WS;v2-0291;Alcedo_vol_2-0291
TopUrbiGroup17202;id_06843;2;Guaraunos;Indigenous-political;Nación;-;;;Orinoco;Nueva Andalucia;dummy_regional;0,583534816;-51,71351876;7202;Este grupo no ha sido revisado.;This group has not been looked at.;Ce groupe n'a pas été examiné.;;;;;;;;;;;;;;;;WS;v2-0293;Alcedo_vol_2-0293
TopUrbiGroup17204;id_06845;2;Guarayos;Indigenous-political;Nación;-;;;Paraguay;Rio de la Plata;dummy_regional;-22,9839;-54,6839;7204;Este grupo no ha sido revisado.;This group has not been looked at.;Ce groupe n'a pas été examiné.;;;;;;;;;;;;;;;;WS;v2-0293;Alcedo_vol_2-0293
TopUrbiGroup17218;id_06859;2;Guarinumas;Indigenous-political;Nación;-;;;Amazonas;Brasil;zonal;-3,9844633;-59,19160487;7218;Este grupo no ha sido revisado.;This group has not been looked at.;Ce groupe n'a pas été examiné.;;;;;;;;;;;;;;;;CLD;v2-0296;Alcedo_vol_2-0296
TopUrbiGroup17253;id_06894;2;Guatahuacas;Indigenous-political;Nación;-;;;Huanuco;Peru;dummy_regional;18,571;-70,199;7253;Este grupo no ha sido revisado.;This group has not been looked at.;Ce groupe n'a pas été examiné.;;;;;;;;;;;;;;;;WS;v2-0301;Alcedo_vol_2-0301
TopUrbiGroup17260;id_06900;2;Guatavitas;Indigenous-political;Nación;-;;;unspecified;Nuevo Reyno de Granada;dummy_regional;6,9217;-73,7783;7260;Este grupo no ha sido revisado.;This group has not been looked at.;Ce groupe n'a pas été examiné.;;;;;;;;;;;;;;;;WS;v2-0303;Alcedo_vol_2-0303
TopUrbiGroup17265;id_06905;2;Guates;Indigenous-political;Nación;-;;;Paraguay;Rio de la Plata;dummy_regional;-22,9778;-54,4778;7265;Este grupo no ha sido revisado.;This group has not been looked at.;Ce groupe n'a pas été examiné.;;;;;;;;;;;;;;;;WS;v2-0315;Alcedo_vol_2-0315
TopUrbiGroup17267;id_06907;2;Guaticas;Indigenous-political;Nación;-;;;Nuevo Reyno de Granada;Nuevo Reyno de Granada;dummy_regional;5,0224;-75,9776;7267;Este grupo no ha sido revisado.;This group has not been looked at.;Ce groupe n'a pas été examiné.;;;;;;;;;;;;;;;;WS;v2-0315;Alcedo_vol_2-0315
TopUrbiGroup17269;id_06909;2;Guatinguapas;Indigenous-political;Nación;-;;;unspecified;Maynas;dummy_regional;-9,4174;-75,7774;7269;Este grupo no ha sido revisado.;This group has not been looked at.;Ce groupe n'a pas été examiné.;;;;;;;;;;;;;;;;WS;v2-0315;Alcedo_vol_2-0315
TopUrbiGroup17298;id_06938;2;Guaxiroapos;Indigenous-political;Nación;-;;;Paraguay;Rio de la Plata;dummy_regional;-22,9745;-54,3745;7298;Este grupo no ha sido revisado.;This group has not been looked at.;Ce groupe n'a pas été examiné.;;;;;;;;;;;;;;;;WS;v2-0319;Alcedo_vol_2-0319
TopUrbiGroup17323;id_06961;2;Guayazis;Indigenous-political;Nación;-;;;Marañon;Brasil;zonal;-1,46759;-51,68152;7323;Este grupo no ha sido revisado.;This group has not been looked at.;Ce groupe n'a pas été examiné.;;;;;;;;;;;;;;;;CLD;v2-0333;Alcedo_vol_2-0333
TopUrbiGroup17341;id_06979;2;Guazquias;Indigenous-political;Nación;-;;;Nuevo Reyno de Granada;Nuevo Reyno de Granada;dummy_regional;4,6298;-74,0502;7341;Este grupo no ha sido revisado.;This group has not been looked at.;Ce groupe n'a pas été examiné.;;;;;;;;;;;;;;;;WS;v2-0335;Alcedo_vol_2-0335
TopUrbiGroup17389;id_07038;2;Guipunabis;Indigenous-political;Nación;-;;;unspecified;Brasil;area_sufficient;-2,22148491;-60,3262907;7389;Este grupo no ha sido revisado.;This group has not been looked at.;Ce groupe n'a pas été examiné.;;;;;;;;;;;;;;;;CLD;v2-0342;Alcedo_vol_2-0342
TopUrbiGroup17411;id_07060;2;Gusmagis;Indigenous-political;Nación;-;;;Marañon;Brasil;area_well_placed;-3,29498;-59,02484;7411;Este grupo no ha sido revisado.;This group has not been looked at.;Ce groupe n'a pas été examiné.;;;;;;;;;;;;;;;;CLD;v2-0344;Alcedo_vol_2-0344
TopUrbiGroup17455;id_07103;2;Hancohualluas;Indigenous-political;Nación;-;;;Charcas;Charcas;dummy_regional;-13,733611;-72,995556;7455;Este grupo no ha sido revisado.;This group has not been looked at.;Ce groupe n'a pas été examiné.;;;;;;;;;;;;;;;;WS;v2-0350;Alcedo_vol_2-0350
TopUrbiGroup17559;id_07221;2;Hinhaneton;Indigenous-political;Nación;-;;;Luisiana;Luisiana;zonal;44,11222918;-93,83015236;7559;Este grupo no ha sido revisado.;This group has not been looked at.;Ce groupe n'a pas été examiné.;Este grupo ha sido mal categorizado en Alcedo.;This group has been miscategorized in Alcedo.;Ce groupe a été mal catégorisé dans Alcedo.;;;;;;;;;;;;;WS;v2-0362;Alcedo_vol_2-0362
TopUrbiGroup17626;id_07288;2;Horheton;Indigenous-political;Nación;-;;;Luisiana;Luisiana;zonal;45,1803472;-94,64739141;7626;Este grupo no ha sido revisado.;This group has not been looked at.;Ce groupe n'a pas été examiné.;Este grupo ha sido mal categorizado en Alcedo.;This group has been miscategorized in Alcedo.;Ce groupe a été mal catégorisé dans Alcedo.;;;;;;;;;;;;;WS;v2-0372;Alcedo_vol_2-0372
TopUrbiGroup17641;id_07302;2;Houmas;Indigenous-political;Nación;-;;;Luisiana;Luisiana;zonal;31,06747371;-91,49860113;7641;Este grupo no ha sido revisado.;This group has not been looked at.;Ce groupe n'a pas été examiné.;Este grupo ha sido mal categorizado en Alcedo.;This group has been miscategorized in Alcedo.;Ce groupe a été mal catégorisé dans Alcedo.;;;;;;;;;;;;;WS;v2-0373;Alcedo_vol_2-0373
TopUrbiGroup17787;id_07461;2;Huaras;Indigenous-political;Nación;-;;;unspecified;Peru;dummy_regional;-9,4142;-75,7242;7787;Este grupo no ha sido revisado.;This group has not been looked at.;Ce groupe n'a pas été examiné.;;;;;;;;;;;;;;;;WS;v2-0385;Alcedo_vol_2-0385
TopUrbiGroup17838;id_07512;2;Huayllas;Indigenous-political;Nación;-;;;unspecified;Peru;dummy_regional;-9,4591;-75,7191;7838;Este grupo no ha sido revisado.;This group has not been looked at.;Ce groupe n'a pas été examiné.;;;;;;;;;;;;;;;;WS;v2-0390;Alcedo_vol_2-0390
TopUrbiGroup17847;id_07521;2;Hubinas;Indigenous-political;Nación;-;;;Condesuyos;Peru;dummy_regional;-15,7482;-72,6282;7847;Este grupo no ha sido revisado.;This group has not been looked at.;Ce groupe n'a pas été examiné.;;;;;;;;;;;;;;;;WS;v2-0391;Alcedo_vol_2-0391
TopUrbiGroup17889;id_07561;2;Huesicas;Indigenous-political;Nación;-;;;Amazonas;Brasil;dummy_regional;-6,914;-64,914;7889;Este grupo no ha sido revisado.;This group has not been looked at.;Ce groupe n'a pas été examiné.;;;;;;;;;;;;;;;;WS;v2-0399;Alcedo_vol_2-0399
TopUrbiGroup17935;id_07604;2;Hurones;Indigenous-political;Nación;-;;;Iroqueses;Middleground;area_sufficient;44,24650448;-79,68213415;7935;Este grupo no ha sido revisado.;This group has not been looked at.;Ce groupe n'a pas été examiné.;;;;;;;;;;;;;;;;WS;v2-0403;Alcedo_vol_2-0403
TopUrbiGroup17936;id_07605;2;Huyllanes;Indigenous-political;Nación;-;;;unspecified;Chile;dummy_regional;-38,5493;-71,9593;7936;Este grupo no ha sido revisado.;This group has not been looked at.;Ce groupe n'a pas été examiné.;;;;;;;;;;;;;;;;WS;v2-0404;Alcedo_vol_2-0404
TopUrbiGroup17964;id_07633;2;Ibitas;Indigenous-political;Nación;-;;;unspecified;Peru;dummy_regional;-9,4965;-75,7065;7964;Este grupo no ha sido revisado.;This group has not been looked at.;Ce groupe n'a pas été examiné.;;;;;;;;;;;;;;;;WS;v2-0409;Alcedo_vol_2-0409
TopUrbiGroup18002;id_07671;2;Idibaes;Indigenous-political;Nación;-;;;Panama;Tierra Firme;area_well_placed;8,04522059;-77,14430946;8002;Este grupo no ha sido revisado.;This group has not been looked at.;Ce groupe n'a pas été examiné.;;;;;;;;;;;;;;;;WS;v2-0413;Alcedo_vol_2-0413
TopUrbiGroup18094;id_07760;2;Illinois;Indigenous-political;Nación;-;;;Canada;Canada;zonal;40,08051425;-90,51326533;8094;Este grupo no ha sido revisado.;This group has not been looked at.;Ce groupe n'a pas été examiné.;;;;;;;;;;;;;;;;WS;v2-0422;Alcedo_vol_2-0422
TopUrbiGroup18139;id_07804;2;Incuris;Indigenous-political;Nación;-;;;Marañon;Brasil;zonal;-3,47844;-65,36179;8139;Este grupo no ha sido revisado.;This group has not been looked at.;Ce groupe n'a pas été examiné.;;;;;;;;;;;;;;;;CLD;v2-0428;Alcedo_vol_2-0428
TopUrbiGroup18168;id_07885;2;Ipuyes;Indigenous-political;Nación;-;;;Tunja;Nuevo Reyno de Granada;dummy_regional;5,5239;-73,3561;8168;Este grupo no ha sido revisado.;This group has not been looked at.;Ce groupe n'a pas été examiné.;;;;;;;;;;;;;;;;WS;v2-0451;Alcedo_vol_2-0451
TopUrbiGroup18175;id_07892;2;Iquitos;Indigenous-political;Nación;-;;;Marañon;Brasil;dummy_regional;-3,9854;-65,3854;8175;Este grupo no ha sido revisado.;This group has not been looked at.;Ce groupe n'a pas été examiné.;;;;;;;;;;;;;;;;WS;v2-0452;Alcedo_vol_2-0452
TopUrbiGroup18189;id_07906;2;Iraruros;Indigenous-political;Nación;-;;;Llanos;Llanos;dummy_regional;6,3531;-73,5862;8189;Este grupo no ha sido revisado.;This group has not been looked at.;Ce groupe n'a pas été examiné.;;;;;;;;;;;;;;;;WS;v2-0453;Alcedo_vol_2-0453
TopUrbiGroup18199;id_07916;2;Iroqueses;Indigenous-political;Nación;-;;;Middleground;Middleground;area_sufficient;42,60589087;-76,51817349;8199;Este grupo no ha sido revisado.;This group has not been looked at.;Ce groupe n'a pas été examiné.;;;;;;;;;;;;;;;;WS;v2-0454;Alcedo_vol_2-0454
TopUrbiGroup18322;id_08034;2;Itatines;Indigenous-political;Nación;-;;;Paraguay;Rio de la Plata;dummy_regional;-22,9707;-54,2707;8322;Este grupo no ha sido revisado.;This group has not been looked at.;Ce groupe n'a pas été examiné.;;;;;;;;;;;;;;;;WS;v2-0468;Alcedo_vol_2-0468
TopUrbiGroup18419;id_08139;2;Jaeces;Indigenous-political;Nación;-;;;Maynas;Maynas;dummy_regional;-3,961;-75,161;8419;Este grupo no ha sido revisado.;This group has not been looked at.;Ce groupe n'a pas été examiné.;;;;;;;;;;;;;;;;WS;v2-0482;Alcedo_vol_2-0482
TopUrbiGroup18542;id_08262;2;Jiraras;Indigenous-political;Nación;-;;;unspecified;Llanos;dummy_regional;7,0513;-73,7487;8542;Este grupo no ha sido revisado.;This group has not been looked at.;Ce groupe n'a pas été examiné.;;;;;;;;;;;;;;;;WS;v2-0508;Alcedo_vol_2-0508
TopUrbiGroup18794;id_08508;2;Judac;Indigenous-political;Nación;-;;;Sonora;Nueva Vizcaya;dummy_regional;33,21939608;-113,0949707;8794;Este grupo no ha sido revisado.;This group has not been looked at.;Ce groupe n'a pas été examiné.;Este grupo ha sido mal categorizado en Alcedo.;This group has been miscategorized in Alcedo.;Ce groupe a été mal catégorisé dans Alcedo.;;;;;;;;;;;;;WS;v2-0532;Alcedo_vol_2-0532
TopUrbiGroup18819;id_08533;2;Juncos;Indigenous-political;Nación;-;;;Chile;Chile;dummy_regional;-29,951;-70,361;8819;Este grupo no ha sido revisado.;This group has not been looked at.;Ce groupe n'a pas été examiné.;;;;;;;;;;;;;;;;WS;v2-0534;Alcedo_vol_2-0534
TopUrbiGroup18836;id_08550;2;Juries;Indigenous-political;Nación;-;;;Tucuman;Rio de la Plata;dummy_regional;-27,0793;-65,0393;8836;Este grupo no ha sido revisado.;This group has not been looked at.;Ce groupe n'a pas été examiné.;;;;;;;;;;;;;;;;WS;v2-0535;Alcedo_vol_2-0535
TopUrbiGroup18861;id_08589;2;Kicapous;Indigenous-political;Nación;-;;;Canada;Canada;zonal;41,55931771;-84,76562269;8861;Este grupo no ha sido revisado.;This group has not been looked at.;Ce groupe n'a pas été examiné.;;;;;;;;;;;;;;;;WS;v2-0539;Alcedo_vol_2-0539
TopUrbiGroup18864;id_08592;2;Killistinons;Indigenous-political;Nación;-;;;Canada;Canada;area_sufficient;32,87175125;-85,45806761;8864;Este grupo no ha sido revisado.;This group has not been looked at.;Ce groupe n'a pas été examiné.;;;;;;;;;;;;;;;;WS;v2-0539;Alcedo_vol_2-0539
TopUrbiGroup18874;id_08602;2;Kiohicans;Indigenous-political;Nación;-;;;Luisiana;Luisiana;zonal;33,95807212;-94,8084343;8874;Este grupo no ha sido revisado.;This group has not been looked at.;Ce groupe n'a pas été examiné.;Este grupo ha sido mal categorizado en Alcedo.;This group has been miscategorized in Alcedo.;Ce groupe a été mal catégorisé dans Alcedo.;;;;;;;;;;;;;WS;v2-0541;Alcedo_vol_2-0541
TopUrbiGroup19262;id_09001;2;Lolacos;Indigenous-political;Nación;-;;;Nuevo Reyno de Granada;Nuevo Reyno de Granada;dummy_regional;4,6247;-74,0553;9262;Este grupo no ha sido revisado.;This group has not been looked at.;Ce groupe n'a pas été examiné.;;;;;;;;;;;;;;;;WS;v2-0601;Alcedo_vol_2-0601
TopUrbiGroup19427;id_09228;2;Lules;Indigenous-political;Nación;-;;;Tucuman;Rio de la Plata;dummy_regional;-28,8573;-64,2273;9427;Este grupo no ha sido revisado.;This group has not been looked at.;Ce groupe n'a pas été examiné.;;;;;;;;;;;;;;;;WS;v2-0632;Alcedo_vol_2-0632
TopUrbiGroup19475;id_09308;3;Machimeton;Indigenous-political;Nación;-;;;Luisiana;Luisiana;zonal;44,86262732;-95,54223922;9475;Este grupo no ha sido revisado.;This group has not been looked at.;Ce groupe n'a pas été examiné.;Este grupo ha sido mal categorizado en Alcedo.;This group has been miscategorized in Alcedo.;Ce groupe a été mal catégorisé dans Alcedo.;;;;;;;;;;;;;WS;v3-0008;Alcedo_vol_3-0008
TopUrbiGroup19483;id_09316;3;Macos;Indigenous-political;Nación;-;;;Nuevo Reyno de Granada;Nuevo Reyno de Granada;area_sufficient;3,98714277;-74,02099987;9483;Este grupo no ha sido revisado.;This group has not been looked at.;Ce groupe n'a pas été examiné.;;;;;;;;;;;;;;;;WS;v3-0009;Alcedo_vol_3-0009
TopUrbiGroup19569;id_09401;3;Maha;Indigenous-political;Nación;-;;;Luisiana;Luisiana;zonal;43,02891249;-97,11698654;9569;Este grupo no ha sido revisado.;This group has not been looked at.;Ce groupe n'a pas été examiné.;Este grupo ha sido mal categorizado en Alcedo.;This group has been miscategorized in Alcedo.;Ce groupe a été mal catégorisé dans Alcedo.;;;;;;;;;;;;;WS;v3-0022;Alcedo_vol_3-0022
TopUrbiGroup19611;id_09443;3;Malaguas;Indigenous-political;Nación;-;;;Esmeraldas;Quito;dummy_regional;0,8611;-78,9289;9611;Este grupo no ha sido revisado.;This group has not been looked at.;Ce groupe n'a pas été examiné.;;;;;;;;;;;;;;;;WS;v3-0032;Alcedo_vol_3-0032
TopUrbiGroup19616;id_09448;3;Malambos;Indigenous-political;Nación;-;;;Cartagena;Nuevo Reyno de Granada;dummy_regional;10,4916;-75,4584;9616;Este grupo no ha sido revisado.;This group has not been looked at.;Ce groupe n'a pas été examiné.;;;;;;;;;;;;;;;;WS;v3-0032;Alcedo_vol_3-0032
TopUrbiGroup19633;id_09465;3;Maliflitos;Indigenous-political;Nación;-;;;unspecified;Nuevo Reyno de Granada;dummy_regional;6,0633;-73,4367;9633;Este grupo no ha sido revisado.;This group has not been looked at.;Ce groupe n'a pas été examiné.;;;;;;;;;;;;;;;;WS;v3-0034;Alcedo_vol_3-0034
TopUrbiGroup19688;id_09519;3;Manamabobos;Indigenous-political;Nación;-;;;Maynas;Maynas;dummy_regional;-3,9312;-75,3312;9688;Este grupo no ha sido revisado.;This group has not been looked at.;Ce groupe n'a pas été examiné.;;;;;;;;;;;;;;;;WS;v3-0043;Alcedo_vol_3-0043
TopUrbiGroup19716;id_09547;3;Malgaches;Indigenous-political;Casta;-;;;Guayaquil;Quito;dummy_regional;-0,108090262;-78,31445446;9716;Este grupo no ha sido revisado.;This group has not been looked at.;Ce groupe n'a pas été examiné.;;;;;;;;;;;;;;;;WS;v3-0046;Alcedo_vol_3-0046
TopUrbiGroup19788;id_11410;3;Omaguacas;Indigenous-political;Nación;-;;;Paraguay;Rio de la Plata;dummy_regional;-26,2818;-54,5518;9788;Este grupo no ha sido revisado.;This group has not been looked at.;Ce groupe n'a pas été examiné.;;;;;;;;;;;;;;;;WS;v3-0374;Alcedo_vol_3-0374
TopUrbiGroup19789;id_11411;3;Omaguas;Indigenous-political;Nación;-;;;Venezuela;Venezuela;area_sufficient;-4,03740535;-72,60361437;9789;Este grupo no ha sido revisado.;This group has not been looked at.;Ce groupe n'a pas été examiné.;;;;;;;;;;;;;;;;WS;v3-0375;Alcedo_vol_3-0375
TopUrbiGroup19790;id_11412;3;Omaguasiete;Indigenous-political;Nación;-;;;Amazonas;Brasil;dummy_regional;-6,8416;-67,5916;9790;Este grupo no ha sido revisado.;This group has not been looked at.;Ce groupe n'a pas été examiné.;;;;;;;;;;;;;;;;WS;v3-0376;Alcedo_vol_3-0376
TopUrbiGroup19830;id_09565;3;Manipos;Indigenous-political;Nación;-;;;Popayan;Popayan;dummy_regional;2,3534;-76,7666;9830;Este grupo no ha sido revisado.;This group has not been looked at.;Ce groupe n'a pas été examiné.;;;;;;;;;;;;;;;;WS;v3-0049;Alcedo_vol_3-0049
TopUrbiGroup19867;id_09602;3;Maputeyapes;Indigenous-political;Nación;-;;;Guarni;Peru;dummy_regional;-9,6429;-76,0229;9867;Este grupo no ha sido revisado.;This group has not been looked at.;Ce groupe n'a pas été examiné.;;;;;;;;;;;;;;;;WS;v3-0056;Alcedo_vol_3-0056
TopUrbiGroup20038;id_09785;3;Mariaues;Indigenous-political;Nación;-;;;Amazonas;Brasil;zonal;-3,16985609;-67,21351381;10038;Este grupo no ha sido revisado.;This group has not been looked at.;Ce groupe n'a pas été examiné.;;;;;;;;;;;;;;;;CLD;v3-0085;Alcedo_vol_3-0085
TopUrbiGroup20051;id_09811;3;Mariquites;Indigenous-political;Nación;-;;;Brasil;Brasil;zonal;-9,42890391;-40,50550842;10051;Este grupo no ha sido revisado.;This group has not been looked at.;Ce groupe n'a pas été examiné.;;;;;;;;;;La existencia real de este grupo es dudosa.;The real existence of this group is doubtful.;L'existence réelle de ce groupe est douteuse.;;;;CLD;v3-0091;Alcedo_vol_3-0091
TopUrbiGroup20066;id_09898;3;Masamaes;Indigenous-political;Nación;-;;;Quito;Quito;dummy_regional;-0,1702;-78,3202;10066;Este grupo no ha sido revisado.;This group has not been looked at.;Ce groupe n'a pas été examiné.;;;;;;;;;;;;;;;;WS;v3-0113;Alcedo_vol_3-0113
TopUrbiGroup20087;id_10669;3;Moscas;Indigenous-political;Nación;-;;;Nuevo Reyno de Granada;Nuevo Reyno de Granada;dummy_regional;4,6019;-74,0781;10087;Este grupo no ha sido revisado.;This group has not been looked at.;Ce groupe n'a pas été examiné.;;;;;;;;;;;;;;;;WS;v3-0253;Alcedo_vol_3-0253
TopUrbiGroup20108;id_11115;3;Nindasos;Indigenous-political;Nación;-;;;Guanaco;Popayan;dummy_regional;2,604;-76,096;10108;Este grupo no ha sido revisado.;This group has not been looked at.;Ce groupe n'a pas été examiné.;;;;;;;;;;;;;;;;WS;v3-0334;Alcedo_vol_3-0334
TopUrbiGroup20163;id_09821;3;Marones;Indigenous-political;Nación;-;;;Cayena;Guayana;dummy_regional;4,713624743;-52,42538338;10163;Este grupo no ha sido revisado.;This group has not been looked at.;Ce groupe n'a pas été examiné.;;;;;;;;;;;;;;;;WS;v3-0092;Alcedo_vol_3-0092
TopUrbiGroup20173;id_09831;3;Marquetones;Indigenous-political;Nación;-;;;unspecified;Nuevo Reyno de Granada;dummy_regional;6,1105;-73,4895;10173;Este grupo no ha sido revisado.;This group has not been looked at.;Ce groupe n'a pas été examiné.;;;;;;;;;;;;;;;;WS;v3-0093;Alcedo_vol_3-0093
TopUrbiGroup20234;id_09906;3;Masiuaribenis;Indigenous-political;Nación;-;;;Santa Fe;Nuevo Reyno de Granada;dummy_regional;4,8166;-73,9834;10234;Este grupo no ha sido revisado.;This group has not been looked at.;Ce groupe n'a pas été examiné.;;;;;;;;;;;;;;;;WS;v3-0114;Alcedo_vol_3-0114
TopUrbiGroup20240;id_09912;3;Masteles;Indigenous-political;Nación;-;;;Popayan;Popayan;dummy_regional;2,2972;-76,8228;10240;Este grupo no ha sido revisado.;This group has not been looked at.;Ce groupe n'a pas été examiné.;;;;;;;;;;;;;;;;WS;v3-0115;Alcedo_vol_3-0115
TopUrbiGroup20242;id_09914;3;Mastes;Indigenous-political;Nación;-;;;Santa Marta;Nuevo Reyno de Granada;dummy_regional;10,7774;-73,7526;10242;Este grupo no ha sido revisado.;This group has not been looked at.;Ce groupe n'a pas été examiné.;;;;;;;;;;;;;;;;WS;v3-0115;Alcedo_vol_3-0115
TopUrbiGroup20281;id_09952;3;Matayus;Indigenous-political;Nación;-;;;Marañon;Brasil;zonal;-2,45403;-55,51707;10281;Este grupo no ha sido revisado.;This group has not been looked at.;Ce groupe n'a pas été examiné.;;;;;;;;;;;;;;;;CLD;v3-0119;Alcedo_vol_3-0119
TopUrbiGroup20373;id_10042;3;Mayorunas;Indigenous-political;Nación;-;;;Maynas;Brasil;dummy_regional;-3,9695;-74,3695;10373;Este grupo no ha sido revisado.;This group has not been looked at.;Ce groupe n'a pas été examiné.;;;;;;;;;;;;;;;;WS;v3-0130;Alcedo_vol_3-0130
TopUrbiGroup20764;id_10461;3;Mocobis;Indigenous-political;Nación;-;;;Tucuman;Rio de la Plata;dummy_regional;-28,9579;-65,8079;10764;Este grupo no ha sido revisado.;This group has not been looked at.;Ce groupe n'a pas été examiné.;;;;;;;;;;;;;;;;WS;v3-0223;Alcedo_vol_3-0223
TopUrbiGroup20783;id_10480;3;Mohawks;Indigenous-political;Nación;-;;;Iroqueses;USA;area_sufficient;42,92591162;-74,88666999;10783;Este grupo no ha sido revisado.;This group has not been looked at.;Ce groupe n'a pas été examiné.;;;;;;;;;;;;;;;;WS;v3-0225;Alcedo_vol_3-0225
TopUrbiGroup20827;id_10524;3;Mondaque;Indigenous-political;Nación;possible;;;Luisiana;Luisiana;zonal;31,79714179;-96,06611057;10827;Este grupo no ha sido revisado.;This group has not been looked at.;Ce groupe n'a pas été examiné.;Este grupo ha sido mal categorizado en Alcedo.;This group has been miscategorized in Alcedo.;Ce groupe a été mal catégorisé dans Alcedo.;;;;;;;;;;;;;WS;v3-0229;Alcedo_vol_3-0229
TopUrbiGroup20973;id_10665;3;Moruas;Indigenous-political;Nación;-;;;unspecified;Brasil;zonal;-3,23345374;-67,46581576;10973;Este grupo no ha sido revisado.;This group has not been looked at.;Ce groupe n'a pas été examiné.;;;;;;;;;;;;;;;;CLD;v3-0253;Alcedo_vol_3-0253
TopUrbiGroup20989;id_10695;3;Motilones;Indigenous-political;Nación;-;;;Venezuela;Venezuela;dummy_regional;9,7646;-67,7954;10989;Este grupo no ha sido revisado.;This group has not been looked at.;Ce groupe n'a pas été examiné.;;;;;;;;;;;;;;;;WS;v3-0257;Alcedo_vol_3-0257
TopUrbiGroup21059;id_10779;3;Muratas;Indigenous-political;Nación;-;;;Maynas;Maynas;dummy_regional;-3,997;-75,597;11059;Este grupo no ha sido revisado.;This group has not been looked at.;Ce groupe n'a pas été examiné.;;;;;;;;;;;;;;;;WS;v3-0273;Alcedo_vol_3-0273
TopUrbiGroup21062;id_10782;3;Mures;Indigenous-political;Nación;-;;;Moxos;Santa Cruz de la Sierra;dummy_regional;-9,6367;-75,7967;11062;Este grupo no ha sido revisado.;This group has not been looked at.;Ce groupe n'a pas été examiné.;;;;;;;;;;;;;;;;WS;v3-0273;Alcedo_vol_3-0273
TopUrbiGroup21083;id_10803;3;Mutuanis;Indigenous-political;Nación;-;;;Amazonas;Brasil;dummy_regional;-6,9946;-65,7946;11083;Este grupo no ha sido revisado.;This group has not been looked at.;Ce groupe n'a pas été examiné.;;;;;;;;;;;;;;;;WS;v3-0275;Alcedo_vol_3-0275
TopUrbiGroup21087;id_10807;3;Muzos;Indigenous-political;Nación;-;;;unspecified;Nuevo Reyno de Granada;dummy_regional;6,2058;-73,4942;11087;Este grupo no ha sido revisado.;This group has not been looked at.;Ce groupe n'a pas été examiné.;;;;;;;;;;;;;;;;WS;v3-0275;Alcedo_vol_3-0275
TopUrbiGroup21089;id_10809;3;Muzupies;Indigenous-political;Nación;-;;;Huanuco;Peru;dummy_regional;-9,824;-76,034;11089;Este grupo no ha sido revisado.;This group has not been looked at.;Ce groupe n'a pas été examiné.;;;;;;;;;;;;;;;;WS;v3-0278;Alcedo_vol_3-0278
TopUrbiGroup21096;id_10816;3;Nacanne;Indigenous-political;Nación;-;;;Luisiana;Luisiana;zonal;32,28839764;-97,52646564;11096;Este grupo no ha sido revisado.;This group has not been looked at.;Ce groupe n'a pas été examiné.;Este grupo ha sido mal categorizado en Alcedo.;This group has been miscategorized in Alcedo.;Ce groupe a été mal catégorisé dans Alcedo.;;;;;;;;;;;;;WS;v3-0279;Alcedo_vol_3-0279
TopUrbiGroup21180;id_10898;3;Natagaimas;Indigenous-political;Nación;-;;;Nuevo Reyno de Granada;Nuevo Reyno de Granada;dummy_regional;4,6151;-74,0649;11180;Este grupo no ha sido revisado.;This group has not been looked at.;Ce groupe n'a pas été examiné.;;;;;;;;;;;;;;;;WS;v3-0291;Alcedo_vol_3-0291
TopUrbiGroup21183;id_10901;3;Natches;Indigenous-political;Nación;-;;;Luisiana;Middleground;area_well_placed;31,55908717;-91,37991087;11183;Este grupo no ha sido revisado.;This group has not been looked at.;Ce groupe n'a pas été examiné.;;;;;;;;;;;;;;;;WS;v3-0291;Alcedo_vol_3-0291
TopUrbiGroup21184;id_10902;3;Natchitoches;Indigenous-political;Nación;-;;;Luisiana;Luisiana;area_sufficient;31,72947921;-93,06620727;11184;Este grupo no ha sido revisado.;This group has not been looked at.;Ce groupe n'a pas été examiné.;;;;;;;;;;;;;;;;WS;v3-0294;Alcedo_vol_3-0294
TopUrbiGroup21209;id_10926;3;Naunas;Indigenous-political;Nación;-;;;Amazonas;Brasil;area_well_placed;-2,69576896;-66,26135985;11209;Este grupo no ha sido revisado.;This group has not been looked at.;Ce groupe n'a pas été examiné.;;;;;;;;;;;;;;;;CLD;v3-0297;Alcedo_vol_3-0297
TopUrbiGroup21213;id_10930;3;Nauras;Indigenous-political;Nación;-;;;Nuevo Reyno de Granada;Nuevo Reyno de Granada;dummy_regional;4,6184;-74,0616;11213;Este grupo no ha sido revisado.;This group has not been looked at.;Ce groupe n'a pas été examiné.;;;;;;;;;;;;;;;;WS;v3-0297;Alcedo_vol_3-0297
TopUrbiGroup21253;id_10997;3;Neocoyaes;Indigenous-political;Nación;-;;;Amazonas;Brasil;dummy_regional;-6,9776;-65,5776;11253;Este grupo no ha sido revisado.;This group has not been looked at.;Ce groupe n'a pas été examiné.;;;;;;;;;;;;;;;;WS;v3-0310;Alcedo_vol_3-0310
TopUrbiGroup21267;id_11011;3;Neuas;Indigenous-political;Nación;-;;;Amazonas;Brasil;dummy_regional;-6,9762;-65,4762;11267;Este grupo no ha sido revisado.;This group has not been looked at.;Ce groupe n'a pas été examiné.;;;;;;;;;;;;;;;;WS;v3-0312;Alcedo_vol_3-0312
TopUrbiGroup21386;id_11173;3;Noquets;Indigenous-political;Nación;-;;;Canada;Canada;zonal;43,89193943;-84,0993813;11386;Este grupo no ha sido revisado.;This group has not been looked at.;Ce groupe n'a pas été examiné.;;;;;;;;;;;;;;;;WS;v3-0342;Alcedo_vol_3-0342
TopUrbiGroup21491;id_11276;3;Nures;Indigenous-political;Nación;-;;;Sinaloa;Nueva Vizcaya;dummy_regional;27,0462;-109,0538;11491;Este grupo no ha sido revisado.;This group has not been looked at.;Ce groupe n'a pas été examiné.;;;;;;;;;;;;;;;;WS;v3-0350;Alcedo_vol_3-0350
TopUrbiGroup21497;id_11282;3;Oas;Indigenous-political;Nación;-;;;Amazonas;Brasil;dummy_regional;-6,9532;-65,3532;11497;Este grupo no ha sido revisado.;This group has not been looked at.;Ce groupe n'a pas été examiné.;;;;;;;;;;;;;;;;WS;v3-0358;Alcedo_vol_3-0358
TopUrbiGroup21498;id_11283;3;Obacatiaras;Indigenous-political;Nación;-;;;unspecified;Brasil;zonal;-10,41129342;-36,44701929;11498;Este grupo no ha sido revisado.;This group has not been looked at.;Ce groupe n'a pas été examiné.;;;;;;;;;;La existencia real de este grupo es dudosa.;The real existence of this group is doubtful.;L'existence réelle de ce groupe est douteuse.;;;;CLD;v3-0358;Alcedo_vol_3-0358
TopUrbiGroup21555;id_11354;3;Ocuitucos;Indigenous-political;Nación;-;;;unspecified;Mexico;dummy_regional;18,0526;-97,5474;11555;Este grupo no ha sido revisado.;This group has not been looked at.;Ce groupe n'a pas été examiné.;;;;;;;;;;;;;;;;WS;v3-0366;Alcedo_vol_3-0366
TopUrbiGroup21567;id_11366;3;Ofogoulas;Indigenous-political;Nación;-;;;Luisiana;Luisiana;zonal;32,02386711;-90,94380103;11567;Este grupo no ha sido revisado.;This group has not been looked at.;Ce groupe n'a pas été examiné.;Este grupo ha sido mal categorizado en Alcedo.;This group has been miscategorized in Alcedo.;Ce groupe a été mal catégorisé dans Alcedo.;;;;;;;;;;;;;WS;v3-0367;Alcedo_vol_3-0367
TopUrbiGroup21576;id_11375;3;Ojatatas;Indigenous-political;Nación;-;;;Tucuman;Rio de la Plata;dummy_regional;-28,4453;-65,3353;11576;Este grupo no ha sido revisado.;This group has not been looked at.;Ce groupe n'a pas été examiné.;;;;;;;;;;;;;;;;WS;v3-0370;Alcedo_vol_3-0370
TopUrbiGroup21604;id_11403;3;Olmecas;Indigenous-political;Nación;-;;;Mexico;Mexico;dummy_regional;19,5175;-99,0625;11604;Este grupo no ha sido revisado.;This group has not been looked at.;Ce groupe n'a pas été examiné.;;;;;;;;;;;;;;;;WS;v3-0373;Alcedo_vol_3-0373
TopUrbiGroup21609;id_11422;3;Omiltecas;Indigenous-political;Nación;-;;;unspecified;Mexico;dummy_regional;17,9594;-97,5406;11609;Este grupo no ha sido revisado.;This group has not been looked at.;Ce groupe n'a pas été examiné.;;;;;;;;;;;;;;;;WS;v3-0379;Alcedo_vol_3-0379
TopUrbiGroup21617;id_11430;3;Onauas;Indigenous-political;Nación;-;;;Sinaloa;Nueva Vizcaya;dummy_regional;25,8502;-108,2298;11617;Este grupo no ha sido revisado.;This group has not been looked at.;Ce groupe n'a pas été examiné.;;;;;;;;;;;;;;;;WS;v3-0380;Alcedo_vol_3-0380
TopUrbiGroup21620;id_11433;3;Oneidas;Indigenous-political;Nación;-;;;Canada;Canada;area_sufficient;42,99068526;-75,34377483;11620;Este grupo no ha sido revisado.;This group has not been looked at.;Ce groupe n'a pas été examiné.;;;;;;;;;;;;;;;;WS;v3-0381;Alcedo_vol_3-0381
TopUrbiGroup21631;id_11444;3;Onneyouths;Indigenous-political;Cantón;-;;;Iroqueses;Canada;dummy_provincial;44,3684984;-78,02913001;11631;Este grupo no ha sido revisado.;This group has not been looked at.;Ce groupe n'a pas été examiné.;;;;;;;;;;;;;;;;WS;v3-0382;Alcedo_vol_3-0382
TopUrbiGroup21632;id_11445;3;Onnontagues;Indigenous-political;Cantón;-;;;Iroqueses;Canada;dummy_provincial;44,3685984;-78,02903001;11632;Este grupo no ha sido revisado.;This group has not been looked at.;Ce groupe n'a pas été examiné.;;;;;;;;;;;;;;;;WS;v3-0382;Alcedo_vol_3-0382
TopUrbiGroup21678;id_11491;3;Oreguatus;Indigenous-political;Nación;-;;;Amazonas;Brasil;zonal;-5,17842968;-60,24761289;11678;Este grupo no ha sido revisado.;This group has not been looked at.;Ce groupe n'a pas été examiné.;;;;;;;;;;;;;;;;CLD;v3-0388;Alcedo_vol_3-0388
TopUrbiGroup21679;id_11492;3;Orejones;Indigenous-political;Nación;-;;;Paraguay;Rio de la Plata;dummy_regional;-22,8036;-60,9736;11679;Este grupo no ha sido revisado.;This group has not been looked at.;Ce groupe n'a pas été examiné.;;;;;;;;;;;;;;;;WS;v3-0388;Alcedo_vol_3-0388
TopUrbiGroup21730;id_11541;3;Oroquaras;Indigenous-political;Nación;-;;;Amazonas;Brasil;area_sufficient;-3,24749;-58,17662;11730;Este grupo no ha sido revisado.;This group has not been looked at.;Ce groupe n'a pas été examiné.;;;;;;;;;;;;;;;;CLD;v3-0399;Alcedo_vol_3-0399
TopUrbiGroup21731;id_11542;3;Ororupianas;Indigenous-political;Nación;-;;;Amazonas;Brasil;zonal;-3,64093;-62,30432;11731;Este grupo no ha sido revisado.;This group has not been looked at.;Ce groupe n'a pas été examiné.;;;;;;;;;;;;;;;;CLD;v3-0399;Alcedo_vol_3-0399
TopUrbiGroup21748;id_11558;3;Osages;Indigenous-political;Nación;-;;;Luisiana;Luisiana;dummy_regional;36,8833;-94,6567;11748;Este grupo no ha sido revisado.;This group has not been looked at.;Ce groupe n'a pas été examiné.;;;;;;;;;;;;;;;;WS;v3-0401;Alcedo_vol_3-0401
TopUrbiGroup21780;id_11589;3;Otanauis;Indigenous-political;Nación;-;;;Amazonas;Brasil;dummy_regional;-6,9235;-65,0235;11780;Este grupo no ha sido revisado.;This group has not been looked at.;Ce groupe n'a pas été examiné.;;;;;;;;;;;;;;;;WS;v3-0406;Alcedo_vol_3-0406
TopUrbiGroup21794;id_11603;3;Othoves;Indigenous-political;Nación;-;;;Luisiana;Luisiana;zonal;40,57475326;-95,86220262;11794;Este grupo no ha sido revisado.;This group has not been looked at.;Ce groupe n'a pas été examiné.;;;;;;;;;;;;;;;;WS;v3-0410;Alcedo_vol_3-0410
TopUrbiGroup21797;id_11606;3;Otoctata;Indigenous-political;Nación;-;;;Luisiana;Luisiana;zonal;40,69419219;-96,11139097;11797;Este grupo no ha sido revisado.;This group has not been looked at.;Ce groupe n'a pas été examiné.;Este grupo ha sido mal categorizado en Alcedo.;This group has been miscategorized in Alcedo.;Ce groupe a été mal catégorisé dans Alcedo.;;;;;;;;;;;;;WS;v3-0410;Alcedo_vol_3-0410
TopUrbiGroup21798;id_11607;3;Otomacos;Indigenous-political;Nación;-;;;Nuevo Reyno de Granada;Nuevo Reyno de Granada;dummy_regional;4,6783;-74,0017;11798;Este grupo no ha sido revisado.;This group has not been looked at.;Ce groupe n'a pas été examiné.;;;;;;;;;;;;;;;;WS;v3-0410;Alcedo_vol_3-0410
TopUrbiGroup21799;id_11608;3;Otomies;Indigenous-political;Nación;-;;;unspecified;Mexico;dummy_regional;17,8784;-97,5216;11799;Este grupo no ha sido revisado.;This group has not been looked at.;Ce groupe n'a pas été examiné.;;;;;;;;;;;;;;;;WS;v3-0411;Alcedo_vol_3-0411
TopUrbiGroup21823;id_11632;3;Ouadaougeounaton;Indigenous-political;Nación;-;;;Luisiana;Luisiana;zonal;44,99822803;-97,31112273;11823;Este grupo no ha sido revisado.;This group has not been looked at.;Ce groupe n'a pas été examiné.;Este grupo ha sido mal categorizado en Alcedo.;This group has been miscategorized in Alcedo.;Ce groupe a été mal catégorisé dans Alcedo.;;;;;;;;;;;;;WS;v3-0416;Alcedo_vol_3-0416
TopUrbiGroup21827;id_11636;3;Ouainco;Indigenous-political;Nación;-;;;Luisiana;Luisiana;zonal;33,49514085;-93,84415418;11827;Este grupo no ha sido revisado.;This group has not been looked at.;Ce groupe n'a pas été examiné.;Este grupo ha sido mal categorizado en Alcedo.;This group has been miscategorized in Alcedo.;Ce groupe a été mal catégorisé dans Alcedo.;;;;;;;;;;;;;WS;v3-0416;Alcedo_vol_3-0416
TopUrbiGroup21843;id_11651;3;Ouetacares;Indigenous-political;Nación;-;;;Brasil;Brasil;area_broad_area;-11;-48;11843;Este grupo no ha sido revisado.;This group has not been looked at.;Ce groupe n'a pas été examiné.;;;;;;;;;;La existencia real de este grupo es dudosa.;The real existence of this group is doubtful.;L'existence réelle de ce groupe est douteuse.;;;;CLD;v3-0418;Alcedo_vol_3-0418
TopUrbiGroup21850;id_11658;3;Oumamis;Indigenous-political;Nación;-;;;Canada;Canada;zonal;39,43545765;-87,36485044;11850;Este grupo no ha sido revisado.;This group has not been looked at.;Ce groupe n'a pas été examiné.;;;;;;;;;;;;;;;;WS;v3-0419;Alcedo_vol_3-0419
TopUrbiGroup21852;id_11660;3;Oumas;Indigenous-political;Nación;-;;;Canada;Canada;area_sufficient;31,13702048;-91,47060736;11852;Este grupo no ha sido revisado.;This group has not been looked at.;Ce groupe n'a pas été examiné.;;;;;;;;;;;;;;;;WS;v3-0419;Alcedo_vol_3-0419
TopUrbiGroup21863;id_11671;3;Outagames;Indigenous-political;Nación;-;;;Canada;Canada;dummy_regional;42,32314588;-83,00302425;11863;Este grupo no ha sido revisado.;This group has not been looked at.;Ce groupe n'a pas été examiné.;;;;;;;;;;;;;;;;WS;v3-0420;Alcedo_vol_3-0420
TopUrbiGroup21866;id_11674;3;Outauaes;Indigenous-political;Nación;-;;;Nouvelle Bretagne;Canada;dummy_regional;51,0851;-83,9149;11866;Este grupo no ha sido revisado.;This group has not been looked at.;Ce groupe n'a pas été examiné.;;;;;;;;;;;;;;;;WS;v3-0420;Alcedo_vol_3-0420
TopUrbiGroup21901;id_11709;3;Oztomatlacas;Indigenous-political;Nación;-;;;unspecified;Mexico;dummy_regional;17,7886;-97,5114;11901;Este grupo no ha sido revisado.;This group has not been looked at.;Ce groupe n'a pas été examiné.;;;;;;;;;;;;;;;;WS;v3-0425;Alcedo_vol_3-0425
TopUrbiGroup21904;id_11712;3;Ozuanas;Indigenous-political;Nación;-;;;unspecified;Brasil;zonal;-3,33166552;-67,41846209;11904;Este grupo no ha sido revisado.;This group has not been looked at.;Ce groupe n'a pas été examiné.;;;;;;;;;;;;;;;;CLD;v3-0425;Alcedo_vol_3-0425
TopUrbiGroup21918;id_11727;3;Mahomas;Indigenous-political;Nación;-;;;Paraguay;Rio de la Plata;dummy_regional;-25,4797;-54,5597;11918;Este grupo no ha sido revisado.;This group has not been looked at.;Ce groupe n'a pas été examiné.;;;;;;;;;;;;;;;;WS;v3-0431;Alcedo_vol_3-0431
TopUrbiGroup21919;id_11728;3;Malbala;Indigenous-political;Nación;-;;;Chaco;Rio de la Plata;dummy_regional;-26,9896;-61,7196;11919;Este grupo no ha sido revisado.;This group has not been looked at.;Ce groupe n'a pas été examiné.;;;;;;;;;;;;;;;;WS;v3-0431;Alcedo_vol_3-0431
TopUrbiGroup21920;id_11729;3;Malecitas;Indigenous-political;Nación;-;;;Iroqueses;Middleground;dummy_regional;44,00927039;-78,86115011;11920;Este grupo no ha sido revisado.;This group has not been looked at.;Ce groupe n'a pas été examiné.;;;;;;;;;;;;;;;;WS;v3-0433;Alcedo_vol_3-0433
TopUrbiGroup21930;id_11739;3;Mamalucos;Indigenous-political;Nación;-;;;San Pablo;Brasil;area_sufficient;-22,42775998;-49,14233398;11930;Este grupo no ha sido revisado.;This group has not been looked at.;Ce groupe n'a pas été examiné.;;;;;;;;;;;;;;;;CLD;v3-0435;Alcedo_vol_3-0435
TopUrbiGroup21931;id_11740;3;Manacicas;Indigenous-political;Nación;-;;;Paraguay;Rio de la Plata;dummy_regional;-25,7384;-56,3084;11931;Este grupo no ha sido revisado.;This group has not been looked at.;Ce groupe n'a pas été examiné.;;;;;;;;;;;;;;;;WS;v3-0438;Alcedo_vol_3-0438
TopUrbiGroup21936;id_11745;3;Manches;Indigenous-political;Nación;-;https://en.wikipedia.org/wiki/;Manche_Ch%CA%Bcol;Manche;Guatemala;area_well_placed;16,20779598;-89,40875139;11936;Este grupo no ha sido revisado.;This group has not been looked at.;Ce groupe n'a pas été examiné.;;;;;;;;;;;;;;;;WS;v3-0452;Alcedo_vol_3-0452
TopUrbiGroup21947;id_11756;3;Mariches;Indigenous-political;Nación;-;;;Nuevo Reyno de Granada;Nuevo Reyno de Granada;dummy_regional;4,6932;-73,9868;11947;Este grupo no ha sido revisado.;This group has not been looked at.;Ce groupe n'a pas été examiné.;;;;;;;;;;;;;;;;WS;v3-0455;Alcedo_vol_3-0455
TopUrbiGroup21958;id_11767;3;Masca;Indigenous-political;Nación;-;;;unspecified;Peru;dummy_regional;-9,6457;-75,7057;11958;Este grupo no ha sido revisado.;This group has not been looked at.;Ce groupe n'a pas été examiné.;;;;;;;;;;;;;;;;WS;v3-0457;Alcedo_vol_3-0457
TopUrbiGroup21959;id_11768;3;Mascoutins;Indigenous-political;Nación;-;;;unspecified;Middleground;area_sufficient;41,69941004;-87,67796193;11959;Este grupo no ha sido revisado.;This group has not been looked at.;Ce groupe n'a pas été examiné.;;;;;;;;;;;;;;;;WS;v3-0457;Alcedo_vol_3-0457
TopUrbiGroup21962;id_11771;3;Masphis;Indigenous-political;Nación;-;;;unspecified;Middleground;area_sufficient;41,85057087;-70,84579452;11962;Este grupo no ha sido revisado.;This group has not been looked at.;Ce groupe n'a pas été examiné.;;;;;;;;;;;;;;;;WS;v3-0458;Alcedo_vol_3-0458
TopUrbiGroup21963;id_11772;3;Mataguayos;Indigenous-political;Nación;-;;;Chaco;Rio de la Plata;dummy_regional;-26,5852;-61,5752;11963;Este grupo no ha sido revisado.;This group has not been looked at.;Ce groupe n'a pas été examiné.;;;;;;;;;;;;;;;;WS;v3-0458;Alcedo_vol_3-0458
TopUrbiGroup21964;id_11773;3;Mataras;Indigenous-political;Nación;-;;;Chaco;Rio de la Plata;dummy_regional;-26,9851;-61,0551;11964;Este grupo no ha sido revisado.;This group has not been looked at.;Ce groupe n'a pas été examiné.;;;;;;;;;;;;;;;;WS;v3-0459;Alcedo_vol_3-0459
TopUrbiGroup21981;id_11790;3;Mexicanos;Indigenous-political;Nación;-;;;Xalisco;Nueva Galicia;dummy_regional;-104,7034;20,3966;11981;Este grupo no ha sido revisado.;This group has not been looked at.;Ce groupe n'a pas été examiné.;;;;;;;;;;;;;;;;WS;v3-0463;Alcedo_vol_3-0463
TopUrbiGroup21998;id_11807;3;Mitchigamias;Indigenous-political;Nación;-;;;Luisiana;Luisiana;zonal;37,99573972;-89,84937866;11998;Este grupo no ha sido revisado.;This group has not been looked at.;Ce groupe n'a pas été examiné.;;;;;;;;;;;;;;;;WS;v3-0474;Alcedo_vol_3-0474
TopUrbiGroup22009;id_11818;3;Mochicas;Indigenous-political;Nación;-;;;unspecified;Peru;dummy_regional;-9,6906;-75,7006;12009;Este grupo no ha sido revisado.;This group has not been looked at.;Ce groupe n'a pas été examiné.;;;;;;;;;;;;;;;;WS;v3-0476;Alcedo_vol_3-0476
TopUrbiGroup22030;id_11839;3;Morotocos;Indigenous-political;Nación;-;;;Paraguay;Rio de la Plata;dummy_regional;-18,3185;-59,4785;12030;Este grupo no ha sido revisado.;This group has not been looked at.;Ce groupe n'a pas été examiné.;;;;;;;;;;;;;;;;WS;v3-0480;Alcedo_vol_3-0480
TopUrbiGroup22039;id_11847;3;Muina;Indigenous-political;Nación;-;;;unspecified;Peru;dummy_regional;-9,8376;-75,7976;12039;Este grupo no ha sido revisado.;This group has not been looked at.;Ce groupe n'a pas été examiné.;;;;;;;;;;;;;;;;WS;v3-0482;Alcedo_vol_3-0482
TopUrbiGroup22049;id_11857;3;Nahuas;Indigenous-political;Nación;-;;;unspecified;Mexico;dummy_regional;17,6034;-97,5966;12049;Este grupo no ha sido revisado.;This group has not been looked at.;Ce groupe n'a pas été examiné.;;;;;;;;;;;;;;;;WS;v3-0485;Alcedo_vol_3-0485
TopUrbiGroup22050;id_11858;3;Nahuatlacas;Indigenous-political;Nación;-;;;unspecified;Mexico;dummy_regional;17,5035;-97,5965;12050;Este grupo no ha sido revisado.;This group has not been looked at.;Ce groupe n'a pas été examiné.;;;;;;;;;;;;;;;;WS;v3-0486;Alcedo_vol_3-0486
TopUrbiGroup22056;id_11864;3;Nauhtecas;Indigenous-political;Nación;-;;;unspecified;Mexico;dummy_regional;17,4041;-97,5959;12056;Este grupo no ha sido revisado.;This group has not been looked at.;Ce groupe n'a pas été examiné.;;;;;;;;;;;;;;;;WS;v3-0487;Alcedo_vol_3-0487
TopUrbiGroup22185;id_11994;4;Paeces;Indigenous-political;Nación;-;;;unspecified;Nuevo Reyno de Granada;dummy_regional;6,317;-73,483;12185;Este grupo no ha sido revisado.;This group has not been looked at.;Ce groupe n'a pas été examiné.;;;;;;;;;;;;;;;;WS;v4-0013;Alcedo_vol_4-0013
TopUrbiGroup22190;id_11999;4;Paguaros;Indigenous-political;Nación;-;;;Marañon;Brasil;area_well_placed;-3,31529;-59,37909;12190;Este grupo no ha sido revisado.;This group has not been looked at.;Ce groupe n'a pas été examiné.;;;;;;;;;;;;;;;;CLD;v4-0013;Alcedo_vol_4-0013
TopUrbiGroup22194;id_12003;4;Paicanos;Indigenous-political;Nación;-;;;Santa Cruz de la Sierra;Santa Cruz de la Sierra;dummy_regional;-17,6021;-63,8021;12194;Este grupo no ha sido revisado.;This group has not been looked at.;Ce groupe n'a pas été examiné.;;;;;;;;;;;;;;;;WS;v4-0014;Alcedo_vol_4-0014
TopUrbiGroup22239;id_12047;4;Palenques;Indigenous-political;Nación;-;;;Guayana;Nueva Andalucia;dummy_regional;0,589934816;-51,70711876;12239;Este grupo no ha sido revisado.;This group has not been looked at.;Ce groupe n'a pas été examiné.;;;;;;;;;;;;;;;;WS;v4-0019;Alcedo_vol_4-0019
TopUrbiGroup22293;id_12102;4;Palomos;Indigenous-political;Nación;-;;;Chaco;Rio de la Plata;dummy_regional;-27,2022;-61,5922;12293;Este grupo no ha sido revisado.;This group has not been looked at.;Ce groupe n'a pas été examiné.;;;;;;;;;;;;;;;;WS;v4-0025;Alcedo_vol_4-0025
TopUrbiGroup22309;id_12118;4;Pampahuacis;Indigenous-political;Nación;-;;;Cuzco;Peru;dummy_regional;-12,9706;-72,0706;12309;Este grupo no ha sido revisado.;This group has not been looked at.;Ce groupe n'a pas été examiné.;;;;;;;;;;;;;;;;WS;v4-0027;Alcedo_vol_4-0027
TopUrbiGroup22316;id_12125;4;Pampas;Indigenous-political;Nación;-;;;unspecified;Rio de la Plata;dummy_regional;-9,8599;-75,7699;12316;Este grupo no ha sido revisado.;This group has not been looked at.;Ce groupe n'a pas été examiné.;;;;;;;;;;;;;;;;WS;v4-0027;Alcedo_vol_4-0027
TopUrbiGroup22342;id_12151;4;Panataguas;Indigenous-political;Nación;-;;;unspecified;Maynas;dummy_regional;-9,9073;-75,7673;12342;Este grupo no ha sido revisado.;This group has not been looked at.;Ce groupe n'a pas été examiné.;;;;;;;;;;;;;;;;WS;v4-0049;Alcedo_vol_4-0049
TopUrbiGroup22348;id_12157;4;Pandabeques;Indigenous-political;Nación;-;;;Amazonas;Brasil;dummy_regional;-6,9667;-65,6667;12348;Este grupo no ha sido revisado.;This group has not been looked at.;Ce groupe n'a pas été examiné.;;;;;;;;;;;;;;;;WS;v4-0051;Alcedo_vol_4-0051
TopUrbiGroup22363;id_12172;4;Panimaha;Indigenous-political;Nación;-;;;Luisiana;Luisiana;zonal;42,26638865;-99,00980046;12363;Este grupo no ha sido revisado.;This group has not been looked at.;Ce groupe n'a pas été examiné.;Este grupo ha sido mal categorizado en Alcedo.;This group has been miscategorized in Alcedo.;Ce groupe a été mal catégorisé dans Alcedo.;;;;;;;;;;;;;WS;v4-0052;Alcedo_vol_4-0052
TopUrbiGroup22364;id_12173;4;Panimalias;Indigenous-political;Nación;-;;;Luisiana;Luisiana;zonal;42,21063204;-98,73170196;12364;Este grupo no ha sido revisado.;This group has not been looked at.;Ce groupe n'a pas été examiné.;Este grupo ha sido mal categorizado en Alcedo.;This group has been miscategorized in Alcedo.;Ce groupe a été mal catégorisé dans Alcedo.;;;;;;;;;;;;;WS;v4-0052;Alcedo_vol_4-0052
TopUrbiGroup22366;id_12175;4;Paniovasas;Indigenous-political;Nación;-;;;Luisiana;Luisiana;zonal;39,14941517;-93,10261909;12366;Este grupo no ha sido revisado.;This group has not been looked at.;Ce groupe n'a pas été examiné.;Este grupo ha sido mal categorizado en Alcedo.;This group has been miscategorized in Alcedo.;Ce groupe a été mal catégorisé dans Alcedo.;;;;;;;;;;;;;WS;v4-0053;Alcedo_vol_4-0053
TopUrbiGroup22367;id_12176;4;Panis;Indigenous-political;Nación;-;;;Luisiana;Luisiana;zonal;41,51350439;-97,2763028;12367;Este grupo no ha sido revisado.;This group has not been looked at.;Ce groupe n'a pas été examiné.;Este grupo ha sido mal categorizado en Alcedo.;This group has been miscategorized in Alcedo.;Ce groupe a été mal catégorisé dans Alcedo.;;;;;;;;;;;;;WS;v4-0053;Alcedo_vol_4-0053
TopUrbiGroup22461;id_13551;4;Punovis;Indigenous-political;Nación;-;;;Amazonas;Brasil;zonal;-3,55361334;-58,75574125;12461;Este grupo no ha sido revisado.;This group has not been looked at.;Ce groupe n'a pas été examiné.;;;;;;;;;;;;;;;;CLD;v4-0322;Alcedo_vol_4-0322
TopUrbiGroup22475;id_12180;4;Panojoris;Indigenous-political;Nación;-;;;Amazonas;Brasil;dummy_regional;-6,954;-67,754;12475;Este grupo no ha sido revisado.;This group has not been looked at.;Ce groupe n'a pas été examiné.;;;;;;;;;;;;;;;;WS;v4-0053;Alcedo_vol_4-0053
TopUrbiGroup22477;id_12182;4;Panos;Indigenous-political;Nación;-;;;Amazonas;Brasil;dummy_regional;-6,9538;-67,6538;12477;Este grupo no ha sido revisado.;This group has not been looked at.;Ce groupe n'a pas été examiné.;;;;;;;;;;;;;;;;WS;v4-0053;Alcedo_vol_4-0053
TopUrbiGroup22497;id_12201;4;Paos;Indigenous-political;Nación;-;;;Llanos;Llanos;dummy_regional;6,4531;-73,5562;12497;Este grupo no ha sido revisado.;This group has not been looked at.;Ce groupe n'a pas été examiné.;;;;;;;;;;;;;;;;WS;v4-0057;Alcedo_vol_4-0057
TopUrbiGroup22528;id_12231;4;Papunacas;Indigenous-political;Nación;-;;;Marañon;Brasil;zonal;-4,78397029;-59,77967809;12528;Este grupo no ha sido revisado.;This group has not been looked at.;Ce groupe n'a pas été examiné.;;;;;;;;;;;;;;;;CLD;v4-0062;Alcedo_vol_4-0062
TopUrbiGroup22596;id_12298;4;Paranos;Indigenous-political;Nación;-;;;Maynas;Maynas;dummy_regional;-4,9019;-75,5519;12596;Este grupo no ha sido revisado.;This group has not been looked at.;Ce groupe n'a pas été examiné.;;;;;;;;;;;;;;;;WS;v4-0092;Alcedo_vol_4-0092
TopUrbiGroup22609;id_12311;4;Parasis;Indigenous-political;Nación;-;;;Chaco;Rio de la Plata;dummy_regional;-26,9406;-61,5406;12609;Este grupo no ha sido revisado.;This group has not been looked at.;Ce groupe n'a pas été examiné.;;;;;;;;;;;;;;;;WS;v4-0094;Alcedo_vol_4-0094
TopUrbiGroup22661;id_12377;4;Parragotes;Indigenous-political;Nación;-;;;Cayena;Guayana;dummy_regional;4,0661;-52,9339;12661;Este grupo no ha sido revisado.;This group has not been looked at.;Ce groupe n'a pas été examiné.;;;;;;;;;;;;;;;;WS;v4-0103;Alcedo_vol_4-0103
TopUrbiGroup22663;id_12379;4;Parriparies;Indigenous-political;Nación;-;;;Nuevo Reyno de Granada;Nuevo Reyno de Granada;dummy_regional;4,6663;-74,0137;12663;Este grupo no ha sido revisado.;This group has not been looked at.;Ce groupe n'a pas été examiné.;;;;;;;;;;;;;;;;WS;v4-0103;Alcedo_vol_4-0103
TopUrbiGroup22675;id_12406;4;Pasaos;Indigenous-political;Nación;-;;;Guayaquil;Quito;dummy_regional;-2,1425;-79,8225;12675;Este grupo no ha sido revisado.;This group has not been looked at.;Ce groupe n'a pas été examiné.;;;;;;;;;;;;;;;;WS;v4-0106;Alcedo_vol_4-0106
TopUrbiGroup22681;id_12412;4;Pascagoula;Indigenous-political;Nación;-;;;Luisiana;Luisiana;zonal;30,87520478;-89,82713516;12681;Este grupo no ha sido revisado.;This group has not been looked at.;Ce groupe n'a pas été examiné.;Este grupo ha sido mal categorizado en Alcedo.;This group has been miscategorized in Alcedo.;Ce groupe a été mal catégorisé dans Alcedo.;;;;;;;;;;;;;WS;v4-0106;Alcedo_vol_4-0106
TopUrbiGroup22710;id_12441;4;Pastagoros;Indigenous-political;Nación;-;;;unspecified;Nuevo Reyno de Granada;dummy_regional;6,471;-73,429;12710;Este grupo no ha sido revisado.;This group has not been looked at.;Ce groupe n'a pas été examiné.;;;;;;;;;;;;;;;;WS;v4-0111;Alcedo_vol_4-0111
TopUrbiGroup22726;id_12457;4;Patagones;Indigenous-political;Nación;-;;;Chile;Chile;dummy_regional;-29,9574;-70,3674;12726;Este grupo no ha sido revisado.;This group has not been looked at.;Ce groupe n'a pas été examiné.;;;;;;;;;;;;;;;;WS;v4-0115;Alcedo_vol_4-0115
TopUrbiGroup22813;id_12545;4;Payaguas;Indigenous-political;Nación;-;;;Paraguay;Rio de la Plata;dummy_regional;-24,7087;-57,9687;12813;Este grupo no ha sido revisado.;This group has not been looked at.;Ce groupe n'a pas été examiné.;;;;;;;;;;;;;;;;WS;v4-0127;Alcedo_vol_4-0127
TopUrbiGroup22819;id_12551;4;Payansos;Indigenous-political;Nación;-;;;Huanuco;Peru;dummy_regional;-9,7481;-75,9181;12819;Este grupo no ha sido revisado.;This group has not been looked at.;Ce groupe n'a pas été examiné.;;;;;;;;;;;;;;;;WS;v4-0128;Alcedo_vol_4-0128
TopUrbiGroup22842;id_12573;4;Pecllansimiquies;Indigenous-political;Nación;-;;;Puerto Viejo;Quito;dummy_regional;-1,1758;-80,3258;12842;Este grupo no ha sido revisado.;This group has not been looked at.;Ce groupe n'a pas été examiné.;;;;;;;;;;;;;;;;WS;v4-0135;Alcedo_vol_4-0135
TopUrbiGroup22913;id_12678;4;Peguas;Indigenous-political;Nación;-;;;Quijos y Macas;Maynas;dummy_regional;-1,2787;-76,5887;12913;Este grupo no ha sido revisado.;This group has not been looked at.;Ce groupe n'a pas été examiné.;;;;;;;;;;;;;;;;WS;v4-0144;Alcedo_vol_4-0144
TopUrbiGroup22989;id_12754;4;Pequenches;Indigenous-political;Nación;-;;;unspecified;Chile;dummy_regional;-38,4911;-72,0011;12989;Este grupo no ha sido revisado.;This group has not been looked at.;Ce groupe n'a pas été examiné.;;;;;;;;;;;;;;;;WS;v4-0154;Alcedo_vol_4-0154
TopUrbiGroup22998;id_12763;4;Pequicas;Indigenous-political;Nación;-;;;Chiquitos;Santa Cruz de la Sierra;dummy_regional;-9,8902;-75,7002;12998;Este grupo no ha sido revisado.;This group has not been looked at.;Ce groupe n'a pas été examiné.;;;;;;;;;;;;;;;;WS;v4-0155;Alcedo_vol_4-0155
TopUrbiGroup23039;id_12804;4;Peritoes;Indigenous-political;Nación;-;;;Nueva Andalucia;Venezuela;dummy_regional;9,5039;-70,9961;13039;Este grupo no ha sido revisado.;This group has not been looked at.;Ce groupe n'a pas été examiné.;;;;;;;;;;;;;;;;WS;v4-0159;Alcedo_vol_4-0159
TopUrbiGroup23090;id_12855;4;Petas;Indigenous-political;Nación;-;;;Chiquitos;Santa Cruz de la Sierra;dummy_regional;-9,981;-75,291;13090;Este grupo no ha sido revisado.;This group has not been looked at.;Ce groupe n'a pas été examiné.;;;;;;;;;;;;;;;;WS;v4-0198;Alcedo_vol_4-0198
TopUrbiGroup23104;id_12869;4;Petiguares;Indigenous-political;Nación;-;;;unspecified;Brasil;area_sufficient;-6,70086347;-35,00349254;13104;Este grupo no ha sido revisado.;This group has not been looked at.;Ce groupe n'a pas été examiné.;;;;;;;;;;;;;;;;CLD;v4-0199;Alcedo_vol_4-0199
TopUrbiGroup23113;id_12878;4;Pevas;Indigenous-political;Nación;-;;;Maynas;Maynas;dummy_regional;-4,9087;-75,6087;13113;Este grupo no ha sido revisado.;This group has not been looked at.;Ce groupe n'a pas été examiné.;;;;;;;;;;;;;;;;WS;v4-0200;Alcedo_vol_4-0200
TopUrbiGroup23114;id_12879;4;Pevingues;Indigenous-political;Nación;-;;;Chile;Chile;dummy_regional;-30,0186;-70,4286;13114;Este grupo no ha sido revisado.;This group has not been looked at.;Ce groupe n'a pas été examiné.;;;;;;;;;;;;;;;;WS;v4-0200;Alcedo_vol_4-0200
TopUrbiGroup23156;id_12921;4;Pichunsis;Indigenous-political;Nación;-;;;Guayaquil;Quito;dummy_regional;-2,2044;-79,9144;13156;Este grupo no ha sido revisado.;This group has not been looked at.;Ce groupe n'a pas été examiné.;;;;;;;;;;;;;;;;WS;v4-0205;Alcedo_vol_4-0205
TopUrbiGroup23204;id_12983;4;Pignocas;Indigenous-political;Nación;-;;;Chiquitos;Santa Cruz de la Sierra;dummy_regional;-9,8696;-75,2796;13204;Este grupo no ha sido revisado.;This group has not been looked at.;Ce groupe n'a pas été examiné.;;;;;;;;;;;;;;;;WS;v4-0211;Alcedo_vol_4-0211
TopUrbiGroup23208;id_12987;4;Pijaos;Indigenous-political;Nación;-;;;Popayan;Popayan;dummy_regional;2,3008;-76,8192;13208;Este grupo no ha sido revisado.;This group has not been looked at.;Ce groupe n'a pas été examiné.;;;;;;;;;;;;;;;;WS;v4-0211;Alcedo_vol_4-0211
TopUrbiGroup23283;id_14163;4;Roamainas;Indigenous-political;Nación;-;;;Maynas;Maynas;dummy_regional;-4,9055;-75,6455;13283;Este grupo no ha sido revisado.;This group has not been looked at.;Ce groupe n'a pas été examiné.;;;;;;;;;;;;;;;;WS;v4-0431;Alcedo_vol_4-0431
TopUrbiGroup23370;id_13049;4;Pinches;Indigenous-political;Nación;-;;;Maynas;Maynas;dummy_regional;-4,933;-75,623;13370;Este grupo no ha sido revisado.;This group has not been looked at.;Ce groupe n'a pas été examiné.;;;;;;;;;;;;;;;;WS;v4-0221;Alcedo_vol_4-0221
TopUrbiGroup23376;id_13055;4;Pincus;Indigenous-political;Nación;-;;;Coquimbo;Chile;dummy_regional;-30,2124;-70,7724;13376;Este grupo no ha sido revisado.;This group has not been looked at.;Ce groupe n'a pas été examiné.;;;;;;;;;;;;;;;;WS;v4-0221;Alcedo_vol_4-0221
TopUrbiGroup23409;id_13088;4;Piococas;Indigenous-political;Nación;-;;;Chiquitos;Santa Cruz de la Sierra;dummy_regional;-9,7591;-75,2691;13409;Este grupo no ha sido revisado.;This group has not been looked at.;Ce groupe n'a pas été examiné.;;;;;;;;;;;;;;;;WS;v4-0226;Alcedo_vol_4-0226
TopUrbiGroup23432;id_13111;4;Piras;Indigenous-political;Nación;-;;;Amazonas;Brasil;area_sufficient;-3,77939;-64,11408;13432;Este grupo no ha sido revisado.;This group has not been looked at.;Ce groupe n'a pas été examiné.;;;;;;;;;;;;;;;;CLD;v4-0228;Alcedo_vol_4-0228
TopUrbiGroup23456;id_13134;4;Piros;Indigenous-political;Nación;-;;;Amazonas;Brasil;dummy_regional;-6,9644;-67,5644;13456;Este grupo no ha sido revisado.;This group has not been looked at.;Ce groupe n'a pas été examiné.;;;;;;;;;;;;;;;;WS;v4-0233;Alcedo_vol_4-0233
TopUrbiGroup23512;id_13226;4;Plateros;Indigenous-political;Nación;-;;;Cuenca;Quito;dummy_regional;-2,8488;-79,0288;13512;Este grupo no ha sido revisado.;This group has not been looked at.;Ce groupe n'a pas été examiné.;;;;;;;;;;;;;;;;WS;v4-0248;Alcedo_vol_4-0248
TopUrbiGroup23574;id_13332;4;Porianas;Indigenous-political;Nación;-;;;Maynas;Maynas;dummy_regional;-3,9526;-75,6526;13574;Este grupo no ha sido revisado.;This group has not been looked at.;Ce groupe n'a pas été examiné.;;;;;;;;;;;;;;;;WS;v4-0276;Alcedo_vol_4-0276
TopUrbiGroup23776;id_13402;4;Pouteowatamis;Indigenous-political;Nación;-;;;Canada;Canada;dummy_regional;42,21049471;-83,26435006;13776;Este grupo no ha sido revisado.;This group has not been looked at.;Ce groupe n'a pas été examiné.;;;;;;;;;;;;;;;;WS;v4-0293;Alcedo_vol_4-0293
TopUrbiGroup23778;id_13404;4;Poyas;Indigenous-political;Nación;-;;;Chile;Chile;dummy_regional;-29,9622;-70,3722;13778;Este grupo no ha sido revisado.;This group has not been looked at.;Ce groupe n'a pas été examiné.;;;;;;;;;;;;;;;;WS;v4-0294;Alcedo_vol_4-0294
TopUrbiGroup23898;id_13522;4;Pulches;Indigenous-political;Nación;-;;;unspecified;Chile;dummy_regional;-38,5602;-72,0202;13898;Este grupo no ha sido revisado.;This group has not been looked at.;Ce groupe n'a pas été examiné.;;;;;;;;;;;;;;;;WS;v4-0318;Alcedo_vol_4-0318
TopUrbiGroup23921;id_13577;4;Purasicas;Indigenous-political;Nación;-;;;Chiquitos;Santa Cruz de la Sierra;dummy_regional;-16,2679;-60,0979;13921;Este grupo no ha sido revisado.;This group has not been looked at.;Ce groupe n'a pas été examiné.;;;;;;;;;;;;;;;;WS;v4-0325;Alcedo_vol_4-0325
TopUrbiGroup23930;id_13599;4;Puruayes;Indigenous-political;Nación;-;;;Riobamba;Quito;dummy_regional;-1,7357;-78,5957;13930;Este grupo no ha sido revisado.;This group has not been looked at.;Ce groupe n'a pas été examiné.;;;;;;;;;;;;;;;;WS;v4-0327;Alcedo_vol_4-0327
TopUrbiGroup23933;id_13602;4;Purugotos;Indigenous-political;Nación;-;;;Guayana;Nueva Andalucia;dummy_regional;0,653164816;-51,64388876;13933;Este grupo no ha sido revisado.;This group has not been looked at.;Ce groupe n'a pas été examiné.;;;;;;;;;;;;;;;;WS;v4-0328;Alcedo_vol_4-0328
TopUrbiGroup23954;id_13623;4;Puyzocas;Indigenous-political;Nación;-;;;Chiquitos;Santa Cruz de la Sierra;dummy_regional;-9,6033;-75,2133;13954;Este grupo no ha sido revisado.;This group has not been looked at.;Ce groupe n'a pas été examiné.;;;;;;;;;;;;;;;;WS;v4-0330;Alcedo_vol_4-0330
TopUrbiGroup23955;id_13624;4;Quachichiles;Indigenous-political;Nación;-;;;Tlaxcala;Puebla;dummy_regional;19,4968;-98,0232;13955;Este grupo no ha sido revisado.;This group has not been looked at.;Ce groupe n'a pas été examiné.;;;;;;;;;;;;;;;;WS;v4-0330;Alcedo_vol_4-0330
TopUrbiGroup23968;id_13637;4;Quaravaguazanas;Indigenous-political;Nación;-;;;Amazonas;Brasil;area_sufficient;-1,83615;-61,5935;13968;Este grupo no ha sido revisado.;This group has not been looked at.;Ce groupe n'a pas été examiné.;;;;;;;;;;;;;;;;CLD;v4-0332;Alcedo_vol_4-0332
TopUrbiGroup23991;id_13659;4;Queaches;Indigenous-political;Nación;-;;;Yucatan;Yucatan;zonal;16,1185706;-90,8945053;13991;Este grupo no ha sido revisado.;This group has not been looked at.;Ce groupe n'a pas été examiné.;;;;;;;;;;La existencia real de este grupo es dudosa.;The real existence of this group is doubtful.;L'existence réelle de ce groupe est douteuse.;;;;WS;v4-0338;Alcedo_vol_4-0338
TopUrbiGroup24001;id_13669;4;Quecas;Indigenous-political;Nación;-;;;Nuevo Reyno de Granada;Nuevo Reyno de Granada;dummy_regional;4,6914;-73,9886;14001;Este grupo no ha sido revisado.;This group has not been looked at.;Ce groupe n'a pas été examiné.;;;;;;;;;;;;;;;;WS;v4-0341;Alcedo_vol_4-0341
TopUrbiGroup24005;id_13673;4;Quechua;Indigenous-political;Nación;-;;;unspecified;Peru;dummy_regional;-9,4982;-75,2082;14005;Este grupo no ha sido revisado.;This group has not been looked at.;Ce groupe n'a pas été examiné.;;;;;;;;;;;;;;;;WS;v4-0341;Alcedo_vol_4-0341
TopUrbiGroup24052;id_13734;4;Quibiquias;Indigenous-political;Nación;-;;;Chiquitos;Santa Cruz de la Sierra;dummy_regional;-9,3935;-75,2035;14052;Este grupo no ha sido revisado.;This group has not been looked at.;Ce groupe n'a pas été examiné.;;;;;;;;;;;;;;;;WS;v4-0351;Alcedo_vol_4-0351
TopUrbiGroup24062;id_13745;4;Quiches;Indigenous-political;Nación;-;;;Luisiana;Luisiana;zonal;32,27738195;-95,35696624;14062;Este grupo no ha sido revisado.;This group has not been looked at.;Ce groupe n'a pas été examiné.;Este grupo ha sido mal categorizado en Alcedo.;This group has been miscategorized in Alcedo.;Ce groupe a été mal catégorisé dans Alcedo.;;;;;;;;;;;;;WS;v4-0353;Alcedo_vol_4-0353
TopUrbiGroup24080;id_13762;4;Quilifayes;Indigenous-political;Nación;-;;;unspecified;Nuevo Reyno de Granada;dummy_regional;6,5993;-73,4007;14080;Este grupo no ha sido revisado.;This group has not been looked at.;Ce groupe n'a pas été examiné.;;;;;;;;;;;;;;;;WS;v4-0355;Alcedo_vol_4-0355
TopUrbiGroup24088;id_13769;4;Quilla-singas;Indigenous-political;Nación;-;;;Pasto;Popayan;dummy_regional;1,2801;-77,1799;14088;Este grupo no ha sido revisado.;This group has not been looked at.;Ce groupe n'a pas été examiné.;;;;;;;;;;;;;;;;WS;v4-0356;Alcedo_vol_4-0356
TopUrbiGroup24102;id_13783;4;Quimecas;Indigenous-political;Nación;-;;;Chiquitos;Santa Cruz de la Sierra;dummy_regional;-9,3885;-75,2985;14102;Este grupo no ha sido revisado.;This group has not been looked at.;Ce groupe n'a pas été examiné.;;;;;;;;;;;;;;;;WS;v4-0357;Alcedo_vol_4-0357
TopUrbiGroup24108;id_13789;4;Quimos;Indigenous-political;Nación;-;;;Chiquitos;Santa Cruz de la Sierra;dummy_regional;-9,2879;-75,2979;14108;Este grupo no ha sido revisado.;This group has not been looked at.;Ce groupe n'a pas été examiné.;;;;;;;;;;;;;;;;WS;v4-0358;Alcedo_vol_4-0358
TopUrbiGroup24113;id_13794;4;Quinchias;Indigenous-political;Nación;-;;;Nuevo Reyno de Granada;Nuevo Reyno de Granada;dummy_regional;4,6026;-74,0774;14113;Este grupo no ha sido revisado.;This group has not been looked at.;Ce groupe n'a pas été examiné.;;;;;;;;;;;;;;;;WS;v4-0359;Alcedo_vol_4-0359
TopUrbiGroup24134;id_13815;4;Quinualla;Indigenous-political;Nación;-;;;Chinchaysuyo;Quito;dummy_regional;-4,3953;-79,2953;14134;Este grupo no ha sido revisado.;This group has not been looked at.;Ce groupe n'a pas été examiné.;;;;;;;;;;;;;;;;WS;v4-0361;Alcedo_vol_4-0361
TopUrbiGroup24147;id_13827;4;Quirabas;Indigenous-political;Nación;-;;;Amazonas;Brasil;zonal;-2,08731;-56,44185;14147;Este grupo no ha sido revisado.;This group has not been looked at.;Ce groupe n'a pas été examiné.;;;;;;;;;;;;;;;;CLD;v4-0363;Alcedo_vol_4-0363
TopUrbiGroup24148;id_13828;4;Quirandies;Indigenous-political;Nación;-;;;Buenos Aires;Rio de la Plata;dummy_regional;-34,6439;-59,2039;14148;Este grupo no ha sido revisado.;This group has not been looked at.;Ce groupe n'a pas été examiné.;;;;;;;;;;;;;;;;WS;v4-0363;Alcedo_vol_4-0363
TopUrbiGroup24157;id_13837;4;Quiriquiripas;Indigenous-political;Nación;-;;;Dorado;Nueva Andalucia;dummy_regional;7,607;-61,993;14157;Este grupo no ha sido revisado.;This group has not been looked at.;Ce groupe n'a pas été examiné.;;;;;;;;;;;;;;;;WS;v4-0363;Alcedo_vol_4-0363
TopUrbiGroup24161;id_13841;4;Quirrubas;Indigenous-political;Nación;-;;;unspecified;Nuevo Reyno de Granada;dummy_regional;6,6074;-73,4926;14161;Este grupo no ha sido revisado.;This group has not been looked at.;Ce groupe n'a pas été examiné.;;;;;;;;;;;;;;;;WS;v4-0363;Alcedo_vol_4-0363
TopUrbiGroup24242;id_15775;4;Tapuyes;Indigenous-political;Nación;-;;;Brasil;Brasil;area_sufficient;-8,11309844;-35,01696777;14242;Este grupo no ha sido revisado.;This group has not been looked at.;Ce groupe n'a pas été examiné.;;;;;;;;;;;;;;;;CLD;v5-0043;Alcedo_vol_5-0043
TopUrbiGroup24280;id_16943;4;Tunebos;Indigenous-political;Nación;-;;;unspecified;Nuevo Reyno de Granada;dummy_regional;7,0193;-73,6307;14280;Este grupo no ha sido revisado.;This group has not been looked at.;Ce groupe n'a pas été examiné.;;;;;;;;;;;;;;;;WS;v5-0232;Alcedo_vol_5-0232
TopUrbiGroup24297;id_17750;4;Xeveros;Indigenous-political;Nación;-;;;Quito;Quito;dummy_regional;-0,249;-78,409;14297;Este grupo no ha sido revisado.;This group has not been looked at.;Ce groupe n'a pas été examiné.;;;;;;;;;;;;;;;;WS;v5-0361;Alcedo_vol_5-0361
TopUrbiGroup24301;id_17754;4;Xibaros;Indigenous-political;Nación;-;;;Macas;Maynas;;-3,65223141;-78,33438017;14301;Este grupo no ha sido revisado.;This group has not been looked at.;Ce groupe n'a pas été examiné.;;;;;;;;;;;;;;;;WS;v5-0362;Alcedo_vol_5-0362
TopUrbiGroup24813;id_14357;4;Rumos;Indigenous-political;Nación;-;;;Amazonas;Brasil;dummy_regional;-6,926;-67,126;14813;Este grupo no ha sido revisado.;This group has not been looked at.;Ce groupe n'a pas été examiné.;;;;;;;;;;;;;;;;WS;v4-0451;Alcedo_vol_4-0451
TopUrbiGroup24883;id_14427;4;Sachichis;Indigenous-political;Nación;-;;;unspecified;Peru;dummy_regional;-9,109;-75,219;14883;Este grupo no ha sido revisado.;This group has not been looked at.;Ce groupe n'a pas été examiné.;;;;;;;;;;;;;;;;WS;v4-0458;Alcedo_vol_4-0458
TopUrbiGroup25012;id_14556;4;Salivas;Indigenous-political;Nación;-;;;San Juan de los Llanos;Llanos;dummy_regional;6,5531;-73,7362;15012;Este grupo no ha sido revisado.;This group has not been looked at.;Ce groupe n'a pas été examiné.;;;;;;;;;;;;;;;;WS;v4-0474;Alcedo_vol_4-0474
TopUrbiGroup25188;id_14753;4;Sapayes;Indigenous-political;Nación;-;;;Cayena;Guayana;dummy_regional;4,715724743;-52,42328338;15188;Este grupo no ha sido revisado.;This group has not been looked at.;Ce groupe n'a pas été examiné.;;;;;;;;;;;;;;;;WS;v4-0514;Alcedo_vol_4-0514
TopUrbiGroup25208;id_14774;4;Sarabes;Indigenous-political;Nación;-;;;Paraguay;Rio de la Plata;dummy_regional;-25,5665;-57,1465;15208;Este grupo no ha sido revisado.;This group has not been looked at.;Ce groupe n'a pas été examiné.;;;;;;;;;;;;;;;;WS;v4-0516;Alcedo_vol_4-0516
TopUrbiGroup25218;id_14784;4;Saramissues;Indigenous-political;Nación;-;;;Cuzco;Peru;dummy_regional;-12,9855;-71,9855;15218;Este grupo no ha sido revisado.;This group has not been looked at.;Ce groupe n'a pas été examiné.;;;;;;;;;;;;;;;;WS;v4-0518;Alcedo_vol_4-0518
TopUrbiGroup25238;id_14804;4;Saruras;Indigenous-political;Nación;-;;;San Juan de los Llanos;Llanos;dummy_regional;6,6531;-73,6862;15238;Este grupo no ha sido revisado.;This group has not been looked at.;Ce groupe n'a pas été examiné.;;;;;;;;;;;;;;;;WS;v4-0520;Alcedo_vol_4-0520
TopUrbiGroup25394;id_14959;4;Semigaes;Indigenous-political;Nación;-;;;Maynas;Maynas;dummy_regional;-3,9679;-75,7679;15394;Este grupo no ha sido revisado.;This group has not been looked at.;Ce groupe n'a pas été examiné.;;;;;;;;;;;;;;;;WS;v4-0538;Alcedo_vol_4-0538
TopUrbiGroup25398;id_14963;4;Senecas;Indigenous-political;Nación;-;;;Middleground;Middleground;area_sufficient;42,7177574;-77,48780102;15398;Este grupo no ha sido revisado.;This group has not been looked at.;Ce groupe n'a pas été examiné.;;;;;;;;;;;;;;;;WS;v4-0538;Alcedo_vol_4-0538
TopUrbiGroup25604;id_15181;4;Situjas;Indigenous-political;Nación;-;;;unspecified;Llanos;dummy_regional;6,7531;-73,4469;15604;Este grupo no ha sido revisado.;This group has not been looked at.;Ce groupe n'a pas été examiné.;;;;;;;;;;;;;;;;WS;v4-0560;Alcedo_vol_4-0560
TopUrbiGroup25639;id_15215;4;Socorines;Indigenous-political;Nación;-;;;unspecified;Rio de la Plata;dummy_regional;-9,0834;-75,2434;15639;Este grupo no ha sido revisado.;This group has not been looked at.;Ce groupe n'a pas été examiné.;;;;;;;;;;;;;;;;WS;v4-0563;Alcedo_vol_4-0563
TopUrbiGroup25780;id_15361;4;Subercias;Indigenous-political;Nación;-;;;Chiquitos;Santa Cruz de la Sierra;dummy_regional;-9,018;-75,228;15780;Este grupo no ha sido revisado.;This group has not been looked at.;Ce groupe n'a pas été examiné.;;;;;;;;;;;;;;;;WS;v4-0586;Alcedo_vol_4-0586
TopUrbiGroup25845;id_15426;4;Suplas;Indigenous-political;Nación;-;;;Popayan;Popayan;dummy_regional;2,3585;-76,7615;15845;Este grupo no ha sido revisado.;This group has not been looked at.;Ce groupe n'a pas été examiné.;;;;;;;;;;;;;;;;WS;v4-0596;Alcedo_vol_4-0596
TopUrbiGroup25846;id_15427;4;Supiayes;Indigenous-political;Nación;-;;;Cayena;Guayana;dummy_regional;4,782924743;-52,35608338;15846;Este grupo no ha sido revisado.;This group has not been looked at.;Ce groupe n'a pas été examiné.;;;;;;;;;;;;;;;;WS;v4-0596;Alcedo_vol_4-0596
TopUrbiGroup25879;id_15460;4;Sutas;Indigenous-political;Nación;-;;;unspecified;Nuevo Reyno de Granada;dummy_regional;6,8819;-73,4181;15879;Este grupo no ha sido revisado.;This group has not been looked at.;Ce groupe n'a pas été examiné.;;;;;;;;;;;;;;;;WS;v4-0605;Alcedo_vol_4-0605
TopUrbiGroup25880;id_15461;4;Sutagaos;Indigenous-political;Nación;-;;;unspecified;Nuevo Reyno de Granada;dummy_regional;6,982;-73,418;15880;Este grupo no ha sido revisado.;This group has not been looked at.;Ce groupe n'a pas été examiné.;;;;;;;;;;;;;;;;WS;v4-0606;Alcedo_vol_4-0606
TopUrbiGroup25912;id_15492;5;Tabicas;Indigenous-political;Nación;-;;;Chiquitos;Santa Cruz de la Sierra;dummy_regional;-9,7548;-75,2148;15912;Este grupo no ha sido revisado.;This group has not been looked at.;Ce groupe n'a pas été examiné.;;;;;;;;;;;;;;;;WS;v5-0004;Alcedo_vol_5-0004
TopUrbiGroup25928;id_15508;5;Tabuyas;Indigenous-political;Nación;-;;;Anserma;Popayan;dummy_regional;5,2168;-75,7732;15928;Este grupo no ha sido revisado.;This group has not been looked at.;Ce groupe n'a pas été examiné.;;;;;;;;;;;;;;;;WS;v5-0006;Alcedo_vol_5-0006
TopUrbiGroup25949;id_15529;5;Tacmara;Indigenous-political;Nación;-;;;unspecified;Peru;dummy_regional;-9,6511;-75,2111;15949;Este grupo no ha sido revisado.;This group has not been looked at.;Ce groupe n'a pas été examiné.;;;;;;;;;;;;;;;;WS;v5-0009;Alcedo_vol_5-0009
TopUrbiGroup25977;id_15555;5;Taensas;Indigenous-political;Nación;-;;;Luisiana;Luisiana;area_sufficient;31,93429916;-91,42336385;15977;Este grupo no ha sido revisado.;This group has not been looked at.;Ce groupe n'a pas été examiné.;Este grupo ha sido mal categorizado en Alcedo.;This group has been miscategorized in Alcedo.;Ce groupe a été mal catégorisé dans Alcedo.;;;;;;;;;;;;;WS;v5-0016;Alcedo_vol_5-0016
TopUrbiGroup25981;id_15559;5;Tagaris;Indigenous-political;Nación;-;;;Amazonas;Brasil;area_sufficient;-2,04803;-56,87203;15981;Este grupo no ha sido revisado.;This group has not been looked at.;Ce groupe n'a pas été examiné.;;;;;;;;;;;;;;;;CLD;v5-0016;Alcedo_vol_5-0016
TopUrbiGroup26040;id_15618;5;Tamanaes;Indigenous-political;Nación;-;;;unspecified;Nuevo Reyno de Granada;dummy_regional;6,098;-73,552;16040;Este grupo no ha sido revisado.;This group has not been looked at.;Ce groupe n'a pas été examiné.;;;;;;;;;;;;;;;;WS;v5-0023;Alcedo_vol_5-0023
TopUrbiGroup26081;id_15658;5;Tames;Indigenous-political;Nación;-;;;Tunja;Nuevo Reyno de Granada;dummy_regional;5,5121;-73,3679;16081;Este grupo no ha sido revisado.;This group has not been looked at.;Ce groupe n'a pas été examiné.;;;;;;;;;;;;;;;;WS;v5-0028;Alcedo_vol_5-0028
TopUrbiGroup26088;id_15665;5;Tamipicas;Indigenous-political;Nación;-;;;Amazonas;Brasil;zonal;-5,98509;-58,46404;16088;Este grupo no ha sido revisado.;This group has not been looked at.;Ce groupe n'a pas été examiné.;;;;;;;;;;La existencia real de este grupo es dudosa.;The real existence of this group is doubtful.;L'existence réelle de ce groupe est douteuse.;;;;CLD;v5-0029;Alcedo_vol_5-0029
TopUrbiGroup26092;id_15669;5;Tamoyes;Indigenous-political;Nación;-;;;Paraguay;Rio de la Plata;dummy_regional;-26,3168;-56,0368;16092;Este grupo no ha sido revisado.;This group has not been looked at.;Ce groupe n'a pas été examiné.;;;;;;;;;;;;;;;;WS;v5-0030;Alcedo_vol_5-0030
TopUrbiGroup26144;id_15721;5;Tapacures;Indigenous-political;Nación;-;;;Moxos;Maynas;dummy_regional;-13,1216;-65,8816;16144;Este grupo no ha sido revisado.;This group has not been looked at.;Ce groupe n'a pas été examiné.;;;;;;;;;;;;;;;;WS;v5-0038;Alcedo_vol_5-0038
TopUrbiGroup26228;id_15841;5;Taucas;Indigenous-political;Nación;-;;;Chiquitos;Santa Cruz de la Sierra;dummy_regional;-9,6232;-75,2832;16228;Este grupo no ha sido revisado.;This group has not been looked at.;Ce groupe n'a pas été examiné.;;;;;;;;;;;;;;;;WS;v5-0054;Alcedo_vol_5-0054
TopUrbiGroup26242;id_15855;5;Taus;Indigenous-political;Nación;-;;;Chiquitos;Santa Cruz de la Sierra;dummy_regional;-9,5218;-75,2818;16242;Este grupo no ha sido revisado.;This group has not been looked at.;Ce groupe n'a pas été examiné.;;;;;;;;;;;;;;;;WS;v5-0057;Alcedo_vol_5-0057
TopUrbiGroup26254;id_15867;5;Tayronas;Indigenous-political;Nación;-;;;Santa Marta;Nuevo Reyno de Granada;dummy_regional;10,9294;-73,6706;16254;Este grupo no ha sido revisado.;This group has not been looked at.;Ce groupe n'a pas été examiné.;;;;;;;;;;;;;;;;WS;v5-0058;Alcedo_vol_5-0058
TopUrbiGroup26427;id_16035;5;Tepeguanes;Indigenous-political;Nación;-;;;unspecified;Nueva Vizcaya;dummy_regional;26,0367;-105,9633;16427;Este grupo no ha sido revisado.;This group has not been looked at.;Ce groupe n'a pas été examiné.;;;;;;;;;;;;;;;;WS;v5-0085;Alcedo_vol_5-0085
TopUrbiGroup26461;id_16083;5;Tepquis;Indigenous-political;Nación;-;;;Huanuco;Peru;dummy_regional;-9,7999;-76,0299;16461;Este grupo no ha sido revisado.;This group has not been looked at.;Ce groupe n'a pas été examiné.;;;;;;;;;;;;;;;;WS;v5-0093;Alcedo_vol_5-0093
TopUrbiGroup26653;id_16301;5;Ticunas;Indigenous-political;Nación;-;;;Amazonas;Brasil;dummy_regional;-6,9394;-66,9394;16653;Este grupo no ha sido revisado.;This group has not been looked at.;Ce groupe n'a pas été examiné.;;;;;;;;;;;;;;;;WS;v5-0126;Alcedo_vol_5-0126
TopUrbiGroup26691;id_16339;5;Timbas;Indigenous-political;Nación;-;;;Nuevo Reyno de Granada;Nuevo Reyno de Granada;dummy_regional;4,6644;-74,0156;16691;Este grupo no ha sido revisado.;This group has not been looked at.;Ce groupe n'a pas été examiné.;;;;;;;;;;;;;;;;WS;v5-0133;Alcedo_vol_5-0133
TopUrbiGroup26696;id_16344;5;Timbues;Indigenous-political;Nación;-;;;Paraguay;Rio de la Plata;dummy_regional;-24,7351;-55,7851;16696;Este grupo no ha sido revisado.;This group has not been looked at.;Ce groupe n'a pas été examiné.;;;;;;;;;;;;;;;;WS;v5-0133;Alcedo_vol_5-0133
TopUrbiGroup26697;id_16762;5;Tovas;Indigenous-political;Nación;-;;;Tucuman;Rio de la Plata;dummy_regional;-27,985;-65,565;16697;Este grupo no ha sido revisado.;This group has not been looked at.;Ce groupe n'a pas été examiné.;;;;;;;;;;;;;;;;WS;v5-0190;Alcedo_vol_5-0190
TopUrbiGroup26743;id_17922;5;Yanacunas;Indigenous-political;Nación;-;;;Chile;Chile;dummy_regional;-29,9604;-70,3704;16743;Este grupo no ha sido revisado.;This group has not been looked at.;Ce groupe n'a pas été examiné.;;;;;;;;;;;;;;;;WS;v5-0388;Alcedo_vol_5-0388
TopUrbiGroup26812;id_16357;5;Tinganases;Indigenous-political;Nación;-;;;Panatahuas;Peru;dummy_regional;-9,6316;-76,1216;16812;Este grupo no ha sido revisado.;This group has not been looked at.;Ce groupe n'a pas été examiné.;;;;;;;;;;;;;;;;WS;v5-0134;Alcedo_vol_5-0134
TopUrbiGroup26833;id_16378;5;Tintones;Indigenous-political;Nación;-;;;Luisiana;Luisiana;zonal;44,76301404;-97,26132355;16833;Este grupo no ha sido revisado.;This group has not been looked at.;Ce groupe n'a pas été examiné.;Este grupo ha sido mal categorizado en Alcedo.;This group has been miscategorized in Alcedo.;Ce groupe a été mal catégorisé dans Alcedo.;;;;;;;;;;;;;WS;v5-0137;Alcedo_vol_5-0137
TopUrbiGroup26871;id_16416;5;Titanes;Indigenous-political;Nación;-;;;Santa Cruz de la Sierra;Santa Cruz de la Sierra;dummy_regional;-17,6657;-63,1557;16871;Este grupo no ha sido revisado.;This group has not been looked at.;Ce groupe n'a pas été examiné.;;;;;;;;;;;;;;;;WS;v5-0140;Alcedo_vol_5-0140
TopUrbiGroup26991;id_16534;5;Tocancipaes;Indigenous-political;Nación;-;;;unspecified;Nuevo Reyno de Granada;dummy_regional;6,5963;-73,5537;16991;Este grupo no ha sido revisado.;This group has not been looked at.;Ce groupe n'a pas été examiné.;;;;;;;;;;;;;;;;WS;v5-0161;Alcedo_vol_5-0161
TopUrbiGroup26993;id_16536;5;Tocantines;Indigenous-political;Nación;-;;;Para;Brasil;area_sufficient;-3,06733;-49,75455;16993;Este grupo no ha sido revisado.;This group has not been looked at.;Ce groupe n'a pas été examiné.;;;;;;;;;;;;;;;;CLD;v5-0161;Alcedo_vol_5-0161
TopUrbiGroup27062;id_16605;5;Tomonimes;Indigenous-political;Nación;-;;;Espiritu Santo;Brasil;zonal;-19,16579526;-46,19847107;17062;Este grupo no ha sido revisado.;This group has not been looked at.;Ce groupe n'a pas été examiné.;;;;;;;;;;La existencia real de este grupo es dudosa.;The real existence of this group is doubtful.;L'existence réelle de ce groupe est douteuse.;;;;CLD;v5-0170;Alcedo_vol_5-0170
TopUrbiGroup27110;id_16653;5;Topanas;Indigenous-political;Nación;-;;;Amazonas;Brasil;zonal;-3,17566306;-67,41028968;17110;Este grupo no ha sido revisado.;This group has not been looked at.;Ce groupe n'a pas été examiné.;;;;;;;;;;;;;;;;CLD;v5-0176;Alcedo_vol_5-0176
TopUrbiGroup27111;id_16654;5;Topayos;Indigenous-political;Nación;-;https://pt.wikipedia.org/wiki/;Tapajós;Amazonas;Brasil;area_well_placed;-2,45401;-54,73755;17111;Este grupo no ha sido revisado.;This group has not been looked at.;Ce groupe n'a pas été examiné.;;;;;;;;;;;;;;;;CLD;v5-0176;Alcedo_vol_5-0176
TopUrbiGroup27120;id_16663;5;Topinambes;Indigenous-political;Nación;-;;;Para;Brasil;area_sufficient;-1,43133331;-52,5330379;17120;Este grupo no ha sido revisado.;This group has not been looked at.;Ce groupe n'a pas été examiné.;;;;;;;;;;;;;;;;WS;v5-0179;Alcedo_vol_5-0179
TopUrbiGroup27257;id_16841;5;Tuaicas;Indigenous-political;Nación;-;;;Chiquitos;Santa Cruz de la Sierra;dummy_regional;-9,4157;-75,2757;17257;Este grupo no ha sido revisado.;This group has not been looked at.;Ce groupe n'a pas été examiné.;;;;;;;;;;;;;;;;WS;v5-0209;Alcedo_vol_5-0209
TopUrbiGroup27267;id_16851;5;Tubasis;Indigenous-political;Nación;-;;;Chiquitos;Santa Cruz de la Sierra;dummy_regional;-9,3047;-75,2747;17267;Este grupo no ha sido revisado.;This group has not been looked at.;Ce groupe n'a pas été examiné.;;;;;;;;;;;;;;;;WS;v5-0210;Alcedo_vol_5-0210
TopUrbiGroup27302;id_16900;5;Tuinamanes;Indigenous-political;Nación;-;;;Catapararo;Brasil;area_sufficient;-1,397;-69,46267;17302;Este grupo no ha sido revisado.;This group has not been looked at.;Ce groupe n'a pas été examiné.;;;;;;;;;;;;;;;;CLD;v5-0225;Alcedo_vol_5-0225
TopUrbiGroup27381;id_17008;5;Tuscaroraes;Indigenous-political;Nación;-;;;New York;USA;dummy_regional;40,88911829;-73,855317;17381;Este grupo no ha sido revisado.;This group has not been looked at.;Ce groupe n'a pas été examiné.;;;;;;;;;;;;;;;;WS;v5-0242;Alcedo_vol_5-0242
TopUrbiGroup27409;id_17036;5;Tybiritas;Indigenous-political;Nación;-;;;Sutatenza;Nuevo Reyno de Granada;dummy_regional;5,1409;-73,4591;17409;Este grupo no ha sido revisado.;This group has not been looked at.;Ce groupe n'a pas été examiné.;;;;;;;;;;;;;;;;WS;v5-0246;Alcedo_vol_5-0246
TopUrbiGroup27471;id_17097;5;Umuranas;Indigenous-political;Nación;-;;;unspecified;Maynas;dummy_regional;0,0471;-74,2529;17471;Este grupo no ha sido revisado.;This group has not been looked at.;Ce groupe n'a pas été examiné.;;;;;;;;;;;;;;;;WS;v5-0254;Alcedo_vol_5-0254
TopUrbiGroup27507;id_17133;5;Urabaes;Indigenous-political;Nación;-;;;Uraba;Tierra Firme;area_well_placed;8,08290683;-76,64036824;17507;Este grupo no ha sido revisado.;This group has not been looked at.;Ce groupe n'a pas été examiné.;;;;;;;;;;;;;;;;WS;v5-0258;Alcedo_vol_5-0258
TopUrbiGroup27514;id_17140;5;Urarchais;Indigenous-political;Nación;-;;;Marañon;Brasil;zonal;-3,54588;-58,89589;17514;Este grupo no ha sido revisado.;This group has not been looked at.;Ce groupe n'a pas été examiné.;;;;;;;;;;;;;;;;CLD;v5-0259;Alcedo_vol_5-0259
TopUrbiGroup27567;id_17193;5;Uspas;Indigenous-political;Nación;-;;;Maynas;Maynas;dummy_regional;-4,8633;-75,6433;17567;Este grupo no ha sido revisado.;This group has not been looked at.;Ce groupe n'a pas été examiné.;;;;;;;;;;;;;;;;WS;v5-0265;Alcedo_vol_5-0265
TopUrbiGroup27574;id_17200;5;Utawas;Indigenous-political;Nación;-;;;Canada;Canada;area_sufficient;45,75543218;-78,63102646;17574;Este grupo no ha sido revisado.;This group has not been looked at.;Ce groupe n'a pas été examiné.;Este grupo ha sido mal categorizado en Alcedo.;This group has been miscategorized in Alcedo.;Ce groupe a été mal catégorisé dans Alcedo.;;;;;;;;;;;;;WS;v5-0266;Alcedo_vol_5-0266
TopUrbiGroup27637;id_17277;5;Varais;Indigenous-political;Nación;-;;;Paraguay;Rio de la Plata;dummy_regional;-24,9863;-53,7463;17637;Este grupo no ha sido revisado.;This group has not been looked at.;Ce groupe n'a pas été examiné.;;;;;;;;;;;;;;;;WS;v5-0278;Alcedo_vol_5-0278
TopUrbiGroup27655;id_17295;5;Vayabasones;Indigenous-political;Nación;-;;;Portoseguro;Brasil;zonal;-16,41702771;-39,23667145;17655;Este grupo no ha sido revisado.;This group has not been looked at.;Ce groupe n'a pas été examiné.;;;;;;;;;;La existencia real de este grupo es dudosa.;The real existence of this group is doubtful.;L'existence réelle de ce groupe est douteuse.;;;;CLD;v5-0279;Alcedo_vol_5-0279
TopUrbiGroup27657;id_17297;5;Vaymores;Indigenous-political;Nación;-;;;Brasil;Brasil;area_sufficient;-15,39228064;-39,34014893;17657;Este grupo no ha sido revisado.;This group has not been looked at.;Ce groupe n'a pas été examiné.;;;;;;;;;;;;;;;;CLD;v5-0280;Alcedo_vol_5-0280
TopUrbiGroup28067;id_17684;5;Xacocies;Indigenous-political;Nación;-;;;Paraguay;Rio de la Plata;dummy_regional;-22,9966;-54,8966;18067;Este grupo no ha sido revisado.;This group has not been looked at.;Ce groupe n'a pas été examiné.;;;;;;;;;;;;;;;;WS;v5-0345;Alcedo_vol_5-0345
TopUrbiGroup28105;id_17722;5;Xamaros;Indigenous-political;Nación;-;;;Chiquitos;Santa Cruz de la Sierra;dummy_regional;-9,2328;-75,2928;18105;Este grupo no ha sido revisado.;This group has not been looked at.;Ce groupe n'a pas été examiné.;;;;;;;;;;;;;;;;WS;v5-0354;Alcedo_vol_5-0354
TopUrbiGroup28115;id_17732;5;Xaqueses;Indigenous-political;Nación;-;;;Paraguay;Rio de la Plata;dummy_regional;-22,9918;-54,9918;18115;Este grupo no ha sido revisado.;This group has not been looked at.;Ce groupe n'a pas été examiné.;;;;;;;;;;;;;;;;WS;v5-0356;Alcedo_vol_5-0356
TopUrbiGroup28200;id_17859;5;Yacaretis;Indigenous-political;Nación;-;;;Marañon;Brasil;dummy_regional;-3,982;-67,382;18200;Este grupo no ha sido revisado.;This group has not been looked at.;Ce groupe n'a pas été examiné.;;;;;;;;;;;;;;;;WS;v5-0378;Alcedo_vol_5-0378
TopUrbiGroup28202;id_17861;5;Yacariguaras;Indigenous-political;Nación;-;;;Marañon;Brasil;dummy_regional;-3,9818;-67,4818;18202;Este grupo no ha sido revisado.;This group has not been looked at.;Ce groupe n'a pas été examiné.;;;;;;;;;;;;;;;;WS;v5-0378;Alcedo_vol_5-0378
TopUrbiGroup28233;id_17892;5;Yaguas;Indigenous-political;Nación;-;;;Marañon;Brasil;dummy_regional;-3,9787;-67,5787;18233;Este grupo no ha sido revisado.;This group has not been looked at.;Ce groupe n'a pas été examiné.;;;;;;;;;;;;;;;;WS;v5-0384;Alcedo_vol_5-0384
TopUrbiGroup28299;id_17973;5;Yaros;Indigenous-political;Nación;-;;;Paraguay;Rio de la Plata;dummy_regional;-25,4621;-56,6321;18299;Este grupo no ha sido revisado.;This group has not been looked at.;Ce groupe n'a pas été examiné.;;;;;;;;;;;;;;;;WS;v5-0393;Alcedo_vol_5-0393
TopUrbiGroup28359;id_18031;5;Yetes;Indigenous-political;Nación;-;;;unspecified;Brasil;dummy_regional;-10,9661;-49,9661;18359;Este grupo no ha sido revisado.;This group has not been looked at.;Ce groupe n'a pas été examiné.;;;;;;;;;;;;;;;;WS;v5-0400;Alcedo_vol_5-0400
TopUrbiGroup28386;id_18058;5;Youana;Indigenous-political;Nación;-;;;Luisiana;Luisiana;zonal;32,06940776;-89,75633861;18386;Este grupo no ha sido revisado.;This group has not been looked at.;Ce groupe n'a pas été examiné.;Este grupo ha sido mal categorizado en Alcedo.;This group has been miscategorized in Alcedo.;Ce groupe a été mal catégorisé dans Alcedo.;;;;;;;;;;;;;WS;v5-0407;Alcedo_vol_5-0407
TopUrbiGroup28388;id_18060;5;Yuanes;Indigenous-political;Nación;-;;;Tucuman;Rio de la Plata;dummy_regional;-27,4932;-64,6732;18388;Este grupo no ha sido revisado.;This group has not been looked at.;Ce groupe n'a pas été examiné.;;;;;;;;;;;;;;;;WS;v5-0407;Alcedo_vol_5-0407
TopUrbiGroup28414;id_18086;5;Yungas;Indigenous-political;Raza;-;;;Guayaquil;Quito;dummy_regional;-2,1706;-79,8106;18414;Este grupo no ha sido revisado.;This group has not been looked at.;Ce groupe n'a pas été examiné.;;;;;;;;;;;;;;;;WS;v5-0420;Alcedo_vol_5-0420
TopUrbiGroup28430;id_18102;5;Yurimaguas;Indigenous-political;Nación;-;;;Maynas;Brasil;dummy_regional;-3,179168967;-66,28299169;18430;Este grupo no ha sido revisado.;This group has not been looked at.;Ce groupe n'a pas été examiné.;;;;;;;;;;;;;;;;WS;v5-0421;Alcedo_vol_5-0421
TopUrbiGroup28431;id_18103;5;Yurimos;Indigenous-political;Nación;-;;;Maynas;Maynas;dummy_regional;-3,9589;-75,4589;18431;Este grupo no ha sido revisado.;This group has not been looked at.;Ce groupe n'a pas été examiné.;;;;;;;;;;;;;;;;WS;v5-0421;Alcedo_vol_5-0421
TopUrbiGroup28446;id_18118;5;Yurusnies;Indigenous-political;Nación;-;;;Marañon;Brasil;dummy_regional;-3,9574;-67,6574;18446;Este grupo no ha sido revisado.;This group has not been looked at.;Ce groupe n'a pas été examiné.;;;;;;;;;;;;;;;;WS;v5-0423;Alcedo_vol_5-0423
TopUrbiGroup28517;id_18187;5;Paparas;Indigenous-political;Nación;-;;;Sucumbios;Popayan;dummy_regional;0,3597;-76,8203;18517;Este grupo no ha sido revisado.;This group has not been looked at.;Ce groupe n'a pas été examiné.;;;;;;;;;;;;;;;;WS;v5-0434;Alcedo_vol_5-0434
TopUrbiGroup28518;id_18188;5;Paparas;Indigenous-political;Nación;-;;;Venezuela;Venezuela;dummy_regional;9,5698;-68,1102;18518;Este grupo no ha sido revisado.;This group has not been looked at.;Ce groupe n'a pas été examiné.;;;;;;;;;;;;;;;;WS;v5-0434;Alcedo_vol_5-0434
TopUrbiGroup28524;id_18194;5;Zapazos;Indigenous-political;Nación;-;;;Huanuco;Peru;dummy_regional;-9,7896;-76,0096;18524;Este grupo no ha sido revisado.;This group has not been looked at.;Ce groupe n'a pas été examiné.;;;;;;;;;;;;;;;;WS;v5-0435;Alcedo_vol_5-0435
TopUrbiGroup28531;id_18201;5;Zapotas;Indigenous-political;Nación;-;;;Marañon;Brasil;dummy_regional;-3,9489;-67,7489;18531;Este grupo no ha sido revisado.;This group has not been looked at.;Ce groupe n'a pas été examiné.;;;;;;;;;;;;;;;;WS;v5-0436;Alcedo_vol_5-0436
TopUrbiGroup28594;id_18263;5;Zeunas;Indigenous-political;Nación;-;;;Marañon;Brasil;zonal;-2,25124;-57,45863;18594;Este grupo no ha sido revisado.;This group has not been looked at.;Ce groupe n'a pas été examiné.;;;;;;;;;;;;;;;;CLD;v5-0447;Alcedo_vol_5-0447
TopUrbiGroup28597;id_18266;5;Zias;Indigenous-political;Nación;-;;;unspecified;Maynas;;-1,20325069;-73,51509642;18597;Este grupo no ha sido revisado.;This group has not been looked at.;Ce groupe n'a pas été examiné.;;;;;;;;;;;;;;;;WS;v5-0447;Alcedo_vol_5-0447
TopUrbiGroup28609;id_18278;5;Zimarrones;Indigenous-political;Nación;-;;;unspecified;Maynas;;-4,5649449;-77,01436639;18609;Este grupo no ha sido revisado.;This group has not been looked at.;Ce groupe n'a pas été examiné.;;;;;;;;;;;;;;;;WS;v5-0449;Alcedo_vol_5-0449
TopUrbiGroup28630;id_18299;5;Zipataliguaris;Indigenous-political;Nación;-;;;Paraguay;Rio de la Plata;dummy_regional;-24,439;-56,119;18630;Este grupo no ha sido revisado.;This group has not been looked at.;Ce groupe n'a pas été examiné.;;;;;;;;;;;;;;;;WS;v5-0451;Alcedo_vol_5-0451
TopUrbiGroup28697;id_18362;5;Zunubas;Indigenous-political;Nación;-;;;Sutatenza;Nuevo Reyno de Granada;dummy_regional;5,2677;-73,4323;18697;Este grupo no ha sido revisado.;This group has not been looked at.;Ce groupe n'a pas été examiné.;;;;;;;;;;;;;;;;WS;v5-0461;Alcedo_vol_5-0461
TopUrbiGroup28702;id_18367;5;Zurinas;Indigenous-political;Nación;-;;;Marañon;Brasil;area_sufficient;-3,26795512;-59,42634871;18702;Este grupo no ha sido revisado.;This group has not been looked at.;Ce groupe n'a pas été examiné.;;;;;;;;;;;;;;;;CLD;v5-0461;Alcedo_vol_5-0461
